{"type":"FeatureCollection","features":[{"type":"Feature","properties":{"code":"13101","nameJa":"千代田区","source":"MLIT N03 2024"},"geometry":{"type":"Polygon","coordinates":[[[139.77286584,35.70370214],[139.77303917,35.70509547],[139.77013861,35.70535159],[139.76989497,35.70336686],[139.7680608,35.70346603],[139.7680972,35.70274297],[139.766773,35.70264603],[139.76640105,35.70178241],[139.76786689,35.70096853],[139.76828411,35.69970075],[139.76456103,35.70000853],[139.76130019,35.70158659],[139.74906406,35.70312439],[139.7467085,35.70317384],[139.74447878,35.70230828],[139.73779477,35.69344108],[139.73117528,35.68914247],[139.73000136,35.68554192],[139.73100355,35.68236333],[139.7338338,35.67887803],[139.73677523,35.67887303],[139.73906131,35.67402553],[139.74320603,35.67142969],[139.74696241,35.67050497],[139.74766769,35.66960859],[139.74996158,35.6708308],[139.75855106,35.66858817],[139.76064597,35.67236386],[139.76417452,35.67359],[139.77029142,35.68297563],[139.7708958,35.68451547],[139.76812139,35.68863655],[139.77770798,35.69176825],[139.78258856,35.69471769],[139.781978,35.69523797],[139.7826608,35.69785544],[139.77997747,35.69807797],[139.78039361,35.70033131],[139.77664414,35.70061575],[139.77317053,35.7018788],[139.77366136,35.70303992],[139.77279358,35.7031202],[139.77286584,35.70370214]]]}},{"type":"Feature","properties":{"code":"13102","nameJa":"中央区","source":"MLIT N03 2024"},"geometry":{"type":"Polygon","coordinates":[[[139.78340581,35.69644905],[139.78206942,35.69625908],[139.78258856,35.69471769],[139.78022689,35.69297547],[139.76812139,35.68863655],[139.7708958,35.68451547],[139.77029142,35.68297563],[139.76417452,35.67359],[139.76064597,35.67236386],[139.75855105,35.66858817],[139.76224872,35.66695838],[139.76331043,35.66455342],[139.7594772,35.65899209],[139.7645312,35.65611728],[139.76721056,35.65812125],[139.76930411,35.65627078],[139.77065075,35.65493997],[139.7696445,35.65426178],[139.76809158,35.65578553],[139.76723866,35.65520908],[139.76764603,35.65107814],[139.76836144,35.65037256],[139.77176659,35.65245284],[139.77272,35.6514533],[139.76948953,35.64926556],[139.7727437,35.64604284],[139.78852608,35.65617603],[139.78959243,35.65625936],[139.78906616,35.66564408],[139.7872962,35.67146964],[139.787179,35.67450575],[139.78869153,35.67852214],[139.79238686,35.68348517],[139.79275161,35.68599905],[139.78915411,35.69102739],[139.78891525,35.69470377],[139.7845883,35.69605989],[139.78340581,35.69644905]]]}},{"type":"Feature","properties":{"code":"13103","nameJa":"港区","source":"MLIT N03 2024"},"geometry":{"type":"Polygon","coordinates":[[[139.73054051,35.68126667],[139.72956467,35.68281028],[139.72845633,35.68281417],[139.7267485,35.67928805],[139.72320433,35.67910556],[139.72272739,35.6782525],[139.72257905,35.67906333],[139.72115767,35.67931528],[139.71948791,35.67841056],[139.71994844,35.6753242],[139.71947567,35.67449808],[139.71655842,35.67343308],[139.71656008,35.67236892],[139.71493341,35.67299447],[139.71373506,35.67031086],[139.71470811,35.66959169],[139.70856389,35.664067],[139.7137925,35.65975839],[139.71287776,35.65845005],[139.71446387,35.65734811],[139.71804528,35.65698228],[139.72197389,35.65560336],[139.72279278,35.65607531],[139.72155803,35.65361617],[139.72240553,35.65232978],[139.72297911,35.64711784],[139.72356022,35.64670117],[139.72249214,35.64439728],[139.72131686,35.64440923],[139.71920241,35.64184756],[139.71972908,35.641432],[139.71684322,35.63990175],[139.71667905,35.63826036],[139.71820791,35.6364648],[139.7178282,35.63504536],[139.71996236,35.63457731],[139.72221239,35.63597895],[139.72599849,35.63503367],[139.72685294,35.63427061],[139.72671628,35.63220839],[139.72773017,35.63190172],[139.72830572,35.63284395],[139.72886462,35.63264505],[139.72883377,35.63165478],[139.73086156,35.63041089],[139.73152322,35.62871172],[139.7312293,35.62633451],[139.73394959,35.62611339],[139.7353993,35.623202],[139.73750737,35.62344617],[139.73778652,35.62453228],[139.74333462,35.6251342],[139.74443489,35.62339475],[139.74677322,35.62323836],[139.75025297,35.62482352],[139.75137717,35.62585023],[139.75089722,35.62618728],[139.75192197,35.62610078],[139.75262586,35.63442333],[139.75480484,35.63887559],[139.75670009,35.63841367],[139.75618241,35.63693797],[139.75674817,35.63838767],[139.75874995,35.63730114],[139.75805339,35.63638031],[139.75878772,35.63728061],[139.75960261,35.63680461],[139.75835156,35.63574917],[139.76042577,35.63677833],[139.76035402,35.64497814],[139.75907961,35.6454112],[139.7609873,35.65187197],[139.76129978,35.65246553],[139.76250431,35.65187584],[139.7645312,35.65611728],[139.75947712,35.659077],[139.76318167,35.66400414],[139.76322046,35.66525707],[139.76200413,35.66712761],[139.75431689,35.66990497],[139.74951603,35.6708308],[139.74766769,35.66960859],[139.74696241,35.67050497],[139.74320603,35.67142969],[139.73906131,35.67402553],[139.73677523,35.67887303],[139.7338338,35.67887803],[139.73149939,35.68149528],[139.73070995,35.68102389],[139.73054051,35.68126667]]]}},{"type":"Feature","properties":{"code":"13103","nameJa":"港区","source":"MLIT N03 2024"},"geometry":{"type":"Polygon","coordinates":[[[139.77420008,35.62976956],[139.76873246,35.62643568],[139.77134969,35.62313831],[139.78237634,35.6295086],[139.77653353,35.63625705],[139.77313263,35.63440889],[139.77136073,35.63464694],[139.77085825,35.63307367],[139.77265866,35.63257353],[139.77321603,35.63394895],[139.77477506,35.63482936],[139.77698319,35.63249592],[139.77716659,35.63141911],[139.77425075,35.62978769],[139.77420008,35.62976956]]]}},{"type":"Feature","properties":{"code":"13103","nameJa":"港区","source":"MLIT N03 2024"},"geometry":{"type":"Polygon","coordinates":[[[139.75351944,35.62544925],[139.75350734,35.62404856],[139.75754911,35.62409278],[139.75743244,35.62793],[139.75941297,35.62800006],[139.75922641,35.63365427],[139.75524419,35.63362841],[139.75400545,35.63091905],[139.75353475,35.62564486],[139.75351944,35.62544925]]]}},{"type":"Feature","properties":{"code":"13103","nameJa":"港区","source":"MLIT N03 2024"},"geometry":{"type":"Polygon","coordinates":[[[139.76600765,35.6342327],[139.76557167,35.63319675],[139.76723821,35.63320219],[139.76743341,35.63409468],[139.7660869,35.63426177],[139.76600765,35.6342327]]]}},{"type":"Feature","properties":{"code":"13103","nameJa":"港区","source":"MLIT N03 2024"},"geometry":{"type":"Polygon","coordinates":[[[139.77035703,35.63177011],[139.76975777,35.63234068],[139.7681034,35.63015052],[139.77030791,35.63182979],[139.77035703,35.63177011]]]}},{"type":"Feature","properties":{"code":"13103","nameJa":"港区","source":"MLIT N03 2024"},"geometry":{"type":"Polygon","coordinates":[[[139.76767413,35.62966787],[139.76610045,35.62729709],[139.76815822,35.62939862],[139.76768092,35.6296758],[139.76767413,35.62966787]]]}},{"type":"Feature","properties":{"code":"13103","nameJa":"港区","source":"MLIT N03 2024"},"geometry":{"type":"Polygon","coordinates":[[[139.7711538,35.62838395],[139.77116428,35.6283792],[139.77117202,35.62837847],[139.77118183,35.62837947],[139.77120587,35.62839059],[139.77122855,35.62840425],[139.77123944,35.62840925],[139.77125392,35.62841114],[139.77126706,35.62840969],[139.77127601,35.62840953],[139.77128891,35.62841169],[139.7712953,35.62841856],[139.77129783,35.62842647],[139.7712975,35.62843875],[139.77129616,35.62844803],[139.77129131,35.62845514],[139.77127639,35.6284645],[139.77126414,35.62847092],[139.77124128,35.62847775],[139.77121501,35.62848261],[139.77119623,35.62848339],[139.77117822,35.62848033],[139.77116423,35.62847347],[139.77115163,35.62846669],[139.77113639,35.62845741],[139.77113,35.62845092],[139.77112803,35.62844369],[139.77112881,35.62843225],[139.77113092,35.62841964],[139.77113878,35.62840097],[139.77114562,35.62839053],[139.7711538,35.62838395]]]}},{"type":"Feature","properties":{"code":"13103","nameJa":"港区","source":"MLIT N03 2024"},"geometry":{"type":"Polygon","coordinates":[[[139.7585207,35.63373244],[139.75852175,35.63380184],[139.75840803,35.63380359],[139.75840589,35.63373417],[139.7585207,35.63373244]]]}},{"type":"Feature","properties":{"code":"13103","nameJa":"港区","source":"MLIT N03 2024"},"geometry":{"type":"Polygon","coordinates":[[[139.75622109,35.63689472],[139.75622662,35.63690375],[139.75622992,35.63691547],[139.75618795,35.63692536],[139.75618353,35.63691453],[139.75618355,35.63690641],[139.75618467,35.63689561],[139.75618908,35.63688661],[139.75619572,35.63688208],[139.75620897,35.63688572],[139.75622109,35.63689472]]]}},{"type":"Feature","properties":{"code":"13104","nameJa":"新宿区","source":"MLIT N03 2024"},"geometry":{"type":"Polygon","coordinates":[[[139.73333333,35.70770464],[139.73244655,35.70739384],[139.73168462,35.70822967],[139.73184462,35.70926605],[139.72741988,35.70993884],[139.72598791,35.70920967],[139.72325903,35.71041411],[139.72209489,35.71250189],[139.71865042,35.71254661],[139.71587986,35.71381328],[139.71441236,35.71317551],[139.71211348,35.71476022],[139.71108236,35.71464772],[139.71042097,35.71345914],[139.70587678,35.71343941],[139.70456348,35.71587608],[139.70537652,35.71649053],[139.70593878,35.71885077],[139.70501128,35.71975633],[139.70536547,35.72147772],[139.70415659,35.72221689],[139.70459964,35.72301356],[139.69981686,35.72354605],[139.69897294,35.72243217],[139.69572652,35.72174244],[139.68440872,35.72251387],[139.6841515,35.7237908],[139.68272205,35.72364441],[139.68134986,35.72704439],[139.67701542,35.72951995],[139.67536397,35.7248808],[139.67568477,35.72149914],[139.67462922,35.72149914],[139.67349448,35.71954861],[139.67358445,35.71862028],[139.67541781,35.71924833],[139.67544224,35.71981917],[139.67910086,35.71827861],[139.67969114,35.71637361],[139.67926639,35.71469833],[139.68070445,35.71449389],[139.68185056,35.71315584],[139.68034219,35.71126389],[139.68278275,35.71012251],[139.68896365,35.71143805],[139.69007558,35.71148361],[139.69004141,35.71082611],[139.69104698,35.71052251],[139.69153224,35.71132556],[139.69433114,35.71104],[139.69321224,35.70971667],[139.68837219,35.70691472],[139.68739659,35.70221947],[139.68837659,35.69906475],[139.68561209,35.69421395],[139.68374039,35.69261395],[139.68481012,35.69124256],[139.68321895,35.68871644],[139.68418839,35.687557],[139.6859798,35.68789339],[139.68579506,35.68618784],[139.68493283,35.68574561],[139.68718864,35.68198703],[139.68767309,35.68159369],[139.69521872,35.68674644],[139.70210294,35.68916947],[139.70271014,35.68777197],[139.70578017,35.68804808],[139.70740764,35.6844628],[139.71140739,35.68336725],[139.71478959,35.68086225],[139.71290511,35.6772878],[139.71289425,35.67461836],[139.71485956,35.67507808],[139.71655842,35.67343308],[139.71947567,35.67449808],[139.71994844,35.6753242],[139.71948791,35.67841056],[139.720646,35.67912556],[139.72257905,35.67906333],[139.72272739,35.67825251],[139.72320433,35.67910556],[139.72622572,35.67903361],[139.72852883,35.68283222],[139.72956467,35.68281028],[139.73070995,35.68102389],[139.73149939,35.68149528],[139.73000136,35.68554192],[139.73117528,35.68914247],[139.7375709,35.69322525],[139.74412263,35.70127356],[139.74369014,35.70162856],[139.74587044,35.70291105],[139.74484961,35.70362023],[139.74305769,35.70805077],[139.73585241,35.70918217],[139.735416,35.70822356],[139.73333711,35.70770475],[139.73333333,35.70770464]]]}},{"type":"Feature","properties":{"code":"13105","nameJa":"文京区","source":"MLIT N03 2024"},"geometry":{"type":"Polygon","coordinates":[[[139.75000403,35.7333802],[139.74919403,35.7328738],[139.74676986,35.73533711],[139.74461764,35.73583323],[139.74244708,35.73378714],[139.74352623,35.73289075],[139.74147066,35.73136992],[139.74148567,35.73072964],[139.7408573,35.7303602],[139.73908538,35.73184659],[139.73596842,35.72935408],[139.73739005,35.72689659],[139.73548061,35.72617741],[139.73603864,35.72529631],[139.73448864,35.72506908],[139.73414781,35.72557964],[139.73196725,35.72410436],[139.72987752,35.72628325],[139.72916197,35.72571575],[139.72648725,35.72705159],[139.7248128,35.72663713],[139.7253392,35.72613603],[139.72274973,35.7251488],[139.72472469,35.72000884],[139.72246272,35.71878161],[139.7195327,35.71837495],[139.71899908,35.71745078],[139.71831742,35.71775717],[139.71747711,35.71462161],[139.72239211,35.7126505],[139.72228684,35.71137023],[139.72566486,35.70931133],[139.72741988,35.70993884],[139.73184462,35.70926605],[139.73168462,35.70822967],[139.73244655,35.70739384],[139.735416,35.70822356],[139.73585241,35.70918217],[139.74305769,35.70805077],[139.74484961,35.70362023],[139.74587044,35.70291105],[139.74906406,35.70312439],[139.76130019,35.70158659],[139.76456103,35.70000853],[139.76828411,35.69970075],[139.76786689,35.70096853],[139.76640105,35.70178241],[139.766773,35.70264603],[139.7680972,35.70274297],[139.7680608,35.70346603],[139.76989497,35.70336686],[139.77016333,35.70742853],[139.77237222,35.70721964],[139.7724017,35.70784213],[139.7712953,35.70829714],[139.77123642,35.70899131],[139.76662167,35.70870797],[139.76666864,35.71046936],[139.76822725,35.7104502],[139.76818003,35.71097936],[139.7668592,35.7111952],[139.76764031,35.71136964],[139.76762975,35.71296603],[139.76568197,35.7135852],[139.76601311,35.71543075],[139.76450949,35.7172752],[139.76502895,35.71760741],[139.765997,35.71659408],[139.76687311,35.71693464],[139.76778255,35.7157138],[139.76867811,35.71581631],[139.76714591,35.71824131],[139.76325842,35.72187325],[139.76496681,35.72757267],[139.76223739,35.73146239],[139.76093711,35.732206],[139.75993739,35.73157795],[139.75362462,35.73515795],[139.75065128,35.734446],[139.75022486,35.73351822],[139.75000403,35.7333802]]]}},{"type":"Feature","properties":{"code":"13106","nameJa":"台東区","source":"MLIT N03 2024"},"geometry":{"type":"Polygon","coordinates":[[[139.76666667,35.71329536],[139.76762975,35.71296603],[139.76764031,35.71136964],[139.7668592,35.7111952],[139.76822725,35.7104502],[139.76666864,35.71046936],[139.76662167,35.70870797],[139.77123642,35.70899131],[139.7712953,35.70829714],[139.77221558,35.7083452],[139.77237222,35.70721964],[139.77016333,35.70742853],[139.77013861,35.70535159],[139.77303917,35.70509547],[139.77279358,35.7031202],[139.77366136,35.70303992],[139.77317053,35.7018788],[139.77664414,35.70061575],[139.78039361,35.70033131],[139.77997747,35.69807797],[139.7826608,35.69785544],[139.78254331,35.69657131],[139.78891525,35.69470378],[139.79702283,35.70778308],[139.80732003,35.71836056],[139.80857078,35.72085292],[139.80971861,35.72813459],[139.80143053,35.7292518],[139.79506577,35.72897153],[139.79443581,35.73023069],[139.79268689,35.73011847],[139.79120581,35.73121822],[139.78946134,35.72874323],[139.78775825,35.72797461],[139.78445713,35.72786017],[139.78229739,35.72625544],[139.78145545,35.72461767],[139.78016766,35.724611],[139.77674267,35.72493572],[139.76977211,35.728126],[139.76605292,35.72753156],[139.76474822,35.73014184],[139.76321406,35.73119267],[139.76278878,35.73074711],[139.76496681,35.72757267],[139.76325842,35.72187325],[139.76714591,35.71824131],[139.76867811,35.71581631],[139.76778255,35.7157138],[139.76687311,35.71693464],[139.765997,35.71659408],[139.76502895,35.71760741],[139.76450949,35.7172752],[139.76601311,35.71543075],[139.76561725,35.71406964],[139.76609447,35.7134638],[139.76666667,35.71329536]]]}},{"type":"Feature","properties":{"code":"13107","nameJa":"墨田区","source":"MLIT N03 2024"},"geometry":{"type":"Polygon","coordinates":[[[139.7951673,35.70466072],[139.78891525,35.69470378],[139.78872302,35.69245433],[139.78964662,35.69018711],[139.79040134,35.68929295],[139.79348025,35.69081461],[139.79356248,35.69001184],[139.79638969,35.689751],[139.79672859,35.68853823],[139.79916969,35.68971739],[139.80048525,35.68830184],[139.80480944,35.68850211],[139.80500497,35.68677572],[139.80946667,35.68699264],[139.80937861,35.68844236],[139.81187698,35.68855708],[139.81146895,35.69190875],[139.813447,35.69199236],[139.81338589,35.69267431],[139.81969453,35.69303375],[139.81868961,35.70800764],[139.83068241,35.70300844],[139.83540158,35.70301651],[139.83455244,35.70529011],[139.83960501,35.71035011],[139.83416778,35.71343761],[139.83315944,35.71575789],[139.83549642,35.71786956],[139.83904642,35.71711428],[139.84215477,35.71931092],[139.82481231,35.73648372],[139.82036289,35.74342872],[139.81658316,35.74146484],[139.81449703,35.73880486],[139.81414562,35.7362118],[139.81092752,35.73216403],[139.80857078,35.72085292],[139.80732003,35.71836056],[139.79702283,35.70778308],[139.7951673,35.70466072]]]}},{"type":"Feature","properties":{"code":"13108","nameJa":"江東区","source":"MLIT N03 2024"},"geometry":{"type":"Polygon","coordinates":[[[139.8428973,35.65609884],[139.84295847,35.6568211],[139.84554297,35.65671677],[139.846887,35.67384953],[139.84822678,35.67913453],[139.84551484,35.68128841],[139.84660153,35.68307147],[139.84758822,35.68809397],[139.8477063,35.69496703],[139.84511161,35.69855759],[139.84265355,35.7000715],[139.83540158,35.70301651],[139.83068241,35.70300844],[139.81868961,35.70800764],[139.81969453,35.69303375],[139.81338589,35.69267431],[139.813447,35.69199236],[139.81146895,35.69190875],[139.81187698,35.68855708],[139.80937861,35.68844236],[139.80946667,35.68699264],[139.80500497,35.68677572],[139.80480944,35.68850211],[139.80048525,35.68830184],[139.79916969,35.68971739],[139.79672859,35.68853823],[139.79638969,35.689751],[139.79356248,35.69001184],[139.79348025,35.69081461],[139.79040134,35.68929295],[139.79236606,35.68710711],[139.79263575,35.68437461],[139.7878582,35.67698159],[139.78716536,35.67228103],[139.78894562,35.6665402],[139.78959242,35.65625936],[139.79069445,35.65634547],[139.79091112,35.65491397],[139.79181722,35.65527431],[139.79094639,35.65438208],[139.79241864,35.6529342],[139.77608611,35.64203244],[139.77879737,35.63936874],[139.78016128,35.63935439],[139.79469761,35.64721651],[139.79508633,35.64834461],[139.79303995,35.65030705],[139.79398614,35.65082639],[139.79483061,35.65042933],[139.79769397,35.64786356],[139.79809399,35.64474156],[139.79747117,35.64397944],[139.79588387,35.64311951],[139.79443842,35.64489817],[139.78437036,35.6394412],[139.78413969,35.63850395],[139.78263489,35.63768811],[139.78121475,35.63878403],[139.77865095,35.63726922],[139.78733144,35.62733005],[139.79202051,35.62987022],[139.79885606,35.62176428],[139.80219272,35.62622387],[139.80033433,35.63106469],[139.8014858,35.63281121],[139.80136947,35.63635896],[139.80699047,35.63690075],[139.80636114,35.64520644],[139.80917458,35.64568161],[139.80878572,35.64367967],[139.80771558,35.64334495],[139.80812414,35.64046205],[139.82041525,35.64163108],[139.82167289,35.64294108],[139.83448036,35.64406761],[139.83367533,35.63462508],[139.821247,35.63343997],[139.82170036,35.63034261],[139.82062947,35.62974336],[139.82171361,35.6303286],[139.821666,35.63197732],[139.84025416,35.63389222],[139.84136645,35.64791723],[139.84289189,35.65609378],[139.8428973,35.65609884]]]}},{"type":"Feature","properties":{"code":"13108","nameJa":"江東区","source":"MLIT N03 2024"},"geometry":{"type":"Polygon","coordinates":[[[139.77444494,35.61666667],[139.77345397,35.61612596],[139.77462458,35.61670561],[139.77505778,35.61617959],[139.77393598,35.61549719],[139.77509944,35.61613147],[139.77674252,35.61412461],[139.77437999,35.61278586],[139.77678241,35.61407587],[139.77746964,35.61379587],[139.78672983,35.60184045],[139.79262812,35.60957891],[139.78099193,35.62388286],[139.78494737,35.62634944],[139.78237634,35.6295086],[139.77134969,35.62313831],[139.77425211,35.619274],[139.77288756,35.61853356],[139.77459606,35.61674913],[139.77444494,35.61666667]]]}},{"type":"Feature","properties":{"code":"13108","nameJa":"江東区","source":"MLIT N03 2024"},"geometry":{"type":"Polygon","coordinates":[[[139.81557267,35.59075123],[139.82706231,35.59693821],[139.82027175,35.60749025],[139.80559619,35.59940543],[139.81355103,35.58965564],[139.81557267,35.59075123]]]}},{"type":"Feature","properties":{"code":"13108","nameJa":"江東区","source":"MLIT N03 2024"},"geometry":{"type":"Polygon","coordinates":[[[139.79062436,35.59241161],[139.79159577,35.5939582],[139.81894423,35.6088758],[139.81059314,35.61318439],[139.79854978,35.60707146],[139.79521425,35.60150561],[139.79413005,35.6011412],[139.79114053,35.59713417],[139.79026339,35.59545484],[139.7914947,35.59395139],[139.79043647,35.59248547],[139.79062436,35.59241161]]]}},{"type":"Feature","properties":{"code":"13108","nameJa":"江東区","source":"MLIT N03 2024"},"geometry":{"type":"Polygon","coordinates":[[[139.82804567,35.61203484],[139.83248698,35.61622675],[139.83552433,35.61249014],[139.83860026,35.61416035],[139.84011084,35.63206746],[139.83848815,35.63107233],[139.83711455,35.63104436],[139.837012,35.63177278],[139.82585131,35.63069908],[139.82741706,35.61979778],[139.82941086,35.6199895],[139.83171233,35.62124239],[139.83293564,35.61973905],[139.83062999,35.6184856],[139.83244672,35.61626749],[139.82811739,35.6121075],[139.82804567,35.61203484]]]}},{"type":"Feature","properties":{"code":"13108","nameJa":"江東区","source":"MLIT N03 2024"},"geometry":{"type":"Polygon","coordinates":[[[139.78551969,35.62525667],[139.79487914,35.61378995],[139.79791773,35.61773173],[139.78987814,35.62762264],[139.78593875,35.62548505],[139.78551969,35.62525667]]]}},{"type":"Feature","properties":{"code":"13108","nameJa":"江東区","source":"MLIT N03 2024"},"geometry":{"type":"Polygon","coordinates":[[[139.8268175,35.63977141],[139.82482664,35.63957697],[139.82612856,35.64283031],[139.82286411,35.64232259],[139.8229555,35.64168325],[139.82009927,35.63904825],[139.82115837,35.63406095],[139.82555708,35.63425833],[139.82512397,35.63746405],[139.8327685,35.63820544],[139.8329538,35.64035939],[139.82857042,35.63994205],[139.8268175,35.63977141]]]}},{"type":"Feature","properties":{"code":"13108","nameJa":"江東区","source":"MLIT N03 2024"},"geometry":{"type":"Polygon","coordinates":[[[139.79859172,35.59560995],[139.79342997,35.59280302],[139.79447687,35.59218225],[139.80442584,35.59763961],[139.80377773,35.59841993],[139.79861042,35.59561993],[139.79859172,35.59560995]]]}},{"type":"Feature","properties":{"code":"13108","nameJa":"江東区","source":"MLIT N03 2024"},"geometry":{"type":"Polygon","coordinates":[[[139.7823465,35.63901159],[139.79021236,35.64339559],[139.7823072,35.63902464],[139.7823465,35.63901159]]]}},{"type":"Feature","properties":{"code":"13108","nameJa":"江東区","source":"MLIT N03 2024"},"geometry":{"type":"Polygon","coordinates":[[[139.79098869,35.64373208],[139.79686822,35.64703151],[139.79094519,35.64375559],[139.79098869,35.64373208]]]}},{"type":"Feature","properties":{"code":"13108","nameJa":"江東区","source":"MLIT N03 2024"},"geometry":{"type":"Polygon","coordinates":[[[139.82323331,35.60980187],[139.81916409,35.60898903],[139.82401167,35.60995228],[139.82323331,35.60980187]]]}},{"type":"Feature","properties":{"code":"13108","nameJa":"江東区","source":"MLIT N03 2024"},"geometry":{"type":"Polygon","coordinates":[[[139.80801922,35.62721825],[139.80725436,35.62713039],[139.8219618,35.62853195],[139.8111109,35.62751369],[139.81099834,35.62852703],[139.81108594,35.62751117],[139.80833333,35.62724828],[139.80801922,35.62721825]]]}},{"type":"Feature","properties":{"code":"13108","nameJa":"江東区","source":"MLIT N03 2024"},"geometry":{"type":"Polygon","coordinates":[[[139.82195034,35.61925904],[139.81765265,35.61760444],[139.82196017,35.61924291],[139.82195034,35.61925904]]]}},{"type":"Feature","properties":{"code":"13108","nameJa":"江東区","source":"MLIT N03 2024"},"geometry":{"type":"Polygon","coordinates":[[[139.80958767,35.63816005],[139.80989195,35.6387195],[139.81889678,35.63926992],[139.80987737,35.63874078],[139.80967562,35.63752759],[139.80958767,35.63816005]]]}},{"type":"Feature","properties":{"code":"13108","nameJa":"江東区","source":"MLIT N03 2024"},"geometry":{"type":"Polygon","coordinates":[[[139.81032528,35.63297447],[139.81097089,35.628708],[139.81061501,35.63097022],[139.81032528,35.63297447]]]}},{"type":"Feature","properties":{"code":"13108","nameJa":"江東区","source":"MLIT N03 2024"},"geometry":{"type":"Polygon","coordinates":[[[139.81027287,35.63333333],[139.80997995,35.63521441],[139.81029119,35.63320451],[139.81027287,35.63333333]]]}},{"type":"Feature","properties":{"code":"13108","nameJa":"江東区","source":"MLIT N03 2024"},"geometry":{"type":"Polygon","coordinates":[[[139.77217992,35.61557349],[139.77213628,35.61554934],[139.77280843,35.61472015],[139.77285401,35.61474696],[139.77217992,35.61557349]]]}},{"type":"Feature","properties":{"code":"13108","nameJa":"江東区","source":"MLIT N03 2024"},"geometry":{"type":"Polygon","coordinates":[[[139.83264694,35.637473],[139.83132139,35.63732705],[139.83264287,35.63745369],[139.83275283,35.63657],[139.83281776,35.63733597],[139.83264694,35.637473]]]}},{"type":"Feature","properties":{"code":"13108","nameJa":"江東区","source":"MLIT N03 2024"},"geometry":{"type":"Polygon","coordinates":[[[139.81125425,35.63432941],[139.81089947,35.63429592],[139.81090236,35.63427544],[139.81125425,35.63430878],[139.81309669,35.63448317],[139.81309392,35.63450317],[139.81125425,35.63432941]]]}},{"type":"Feature","properties":{"code":"13108","nameJa":"江東区","source":"MLIT N03 2024"},"geometry":{"type":"Polygon","coordinates":[[[139.8166702,35.63482459],[139.81748717,35.63490333],[139.81551014,35.63473547],[139.81666667,35.63482423],[139.8166702,35.63482459]]]}},{"type":"Feature","properties":{"code":"13108","nameJa":"江東区","source":"MLIT N03 2024"},"geometry":{"type":"Polygon","coordinates":[[[139.81667017,35.63028747],[139.81813117,35.63042859],[139.81614772,35.63025969],[139.81666667,35.63028714],[139.81667017,35.63028747]]]}},{"type":"Feature","properties":{"code":"13108","nameJa":"江東区","source":"MLIT N03 2024"},"geometry":{"type":"Polygon","coordinates":[[[139.81592814,35.63023839],[139.81395608,35.63005087],[139.81593122,35.63021684],[139.81592814,35.63023839]]]}},{"type":"Feature","properties":{"code":"13108","nameJa":"江東区","source":"MLIT N03 2024"},"geometry":{"type":"Polygon","coordinates":[[[139.81374189,35.63000944],[139.81373914,35.63002884],[139.81154428,35.62981905],[139.81154703,35.62979987],[139.81374189,35.63000944]]]}},{"type":"Feature","properties":{"code":"13108","nameJa":"江東区","source":"MLIT N03 2024"},"geometry":{"type":"Polygon","coordinates":[[[139.80992309,35.63560939],[139.80994969,35.63561192],[139.80972861,35.63714847],[139.80975878,35.63715128],[139.80975501,35.63717741],[139.80969837,35.63717197],[139.80992309,35.63560939]]]}},{"type":"Feature","properties":{"code":"13108","nameJa":"江東区","source":"MLIT N03 2024"},"geometry":{"type":"Polygon","coordinates":[[[139.81795667,35.63495161],[139.8198965,35.63513875],[139.81770314,35.63492713],[139.81795667,35.63495161]]]}},{"type":"Feature","properties":{"code":"13108","nameJa":"江東区","source":"MLIT N03 2024"},"geometry":{"type":"Polygon","coordinates":[[[139.826556,35.64146844],[139.82618294,35.64065267],[139.82720358,35.64058495],[139.82620789,35.64065556],[139.82657664,35.64146211],[139.826556,35.64146844]]]}},{"type":"Feature","properties":{"code":"13108","nameJa":"江東区","source":"MLIT N03 2024"},"geometry":{"type":"Polygon","coordinates":[[[139.83266591,35.63554523],[139.83271066,35.6363442],[139.83264438,35.63555711],[139.83163698,35.635347],[139.83250684,35.63541153],[139.83266591,35.63554523]]]}},{"type":"Feature","properties":{"code":"13108","nameJa":"江東区","source":"MLIT N03 2024"},"geometry":{"type":"Polygon","coordinates":[[[139.81529056,35.63469425],[139.81528778,35.63471356],[139.81331728,35.63452359],[139.81332014,35.63450428],[139.81529056,35.63469425]]]}},{"type":"Feature","properties":{"code":"13108","nameJa":"江東区","source":"MLIT N03 2024"},"geometry":{"type":"Polygon","coordinates":[[[139.82653852,35.63483897],[139.82742073,35.63492367],[139.82638139,35.63496372],[139.82624772,35.63572195],[139.82636163,35.63495236],[139.82653852,35.63483897]]]}},{"type":"Feature","properties":{"code":"13108","nameJa":"江東区","source":"MLIT N03 2024"},"geometry":{"type":"Polygon","coordinates":[[[139.83310742,35.6430368],[139.8320817,35.64293947],[139.8330998,35.64301797],[139.83321739,35.64221475],[139.83327859,35.64290675],[139.83310742,35.6430368]]]}},{"type":"Feature","properties":{"code":"13108","nameJa":"江東区","source":"MLIT N03 2024"},"geometry":{"type":"Polygon","coordinates":[[[139.80977856,35.6352262],[139.81007261,35.63316003],[139.80981827,35.63495028],[139.80977856,35.6352262]]]}},{"type":"Feature","properties":{"code":"13108","nameJa":"江東区","source":"MLIT N03 2024"},"geometry":{"type":"Polygon","coordinates":[[[139.82612706,35.6367048],[139.82715469,35.63694669],[139.82610542,35.63671111],[139.82623555,35.63594667],[139.82612706,35.6367048]]]}},{"type":"Feature","properties":{"code":"13108","nameJa":"江東区","source":"MLIT N03 2024"},"geometry":{"type":"Polygon","coordinates":[[[139.81009969,35.63297911],[139.81008302,35.6329775],[139.81037939,35.6309188],[139.81039606,35.63092041],[139.81009969,35.63297911]]]}},{"type":"Feature","properties":{"code":"13108","nameJa":"江東区","source":"MLIT N03 2024"},"geometry":{"type":"Polygon","coordinates":[[[139.82713964,35.64246295],[139.82663636,35.64163869],[139.82790267,35.64253608],[139.82713964,35.64246295]]]}},{"type":"Feature","properties":{"code":"13108","nameJa":"江東区","source":"MLIT N03 2024"},"geometry":{"type":"Polygon","coordinates":[[[139.82021506,35.63291528],[139.81801516,35.63270133],[139.82022014,35.63290031],[139.82021506,35.63291528]]]}},{"type":"Feature","properties":{"code":"13108","nameJa":"江東区","source":"MLIT N03 2024"},"geometry":{"type":"Polygon","coordinates":[[[139.83311711,35.64130256],[139.83235156,35.64107561],[139.83314942,35.64166651],[139.83311711,35.64130256]]]}},{"type":"Feature","properties":{"code":"13108","nameJa":"江東区","source":"MLIT N03 2024"},"geometry":{"type":"Polygon","coordinates":[[[139.81780747,35.63267003],[139.81582467,35.63249261],[139.81702525,35.63259331],[139.81780747,35.63267003]]]}},{"type":"Feature","properties":{"code":"13108","nameJa":"江東区","source":"MLIT N03 2024"},"geometry":{"type":"Polygon","coordinates":[[[139.80950117,35.63714761],[139.80948328,35.6371458],[139.80970975,35.63558141],[139.80972786,35.63558322],[139.80950117,35.63714761]]]}},{"type":"Feature","properties":{"code":"13108","nameJa":"江東区","source":"MLIT N03 2024"},"geometry":{"type":"Polygon","coordinates":[[[139.81342547,35.63224997],[139.8134237,35.63226239],[139.81125486,35.63205613],[139.81125486,35.63204344],[139.81342547,35.63224997]]]}},{"type":"Feature","properties":{"code":"13108","nameJa":"江東区","source":"MLIT N03 2024"},"geometry":{"type":"Polygon","coordinates":[[[139.81560769,35.63247041],[139.81363314,35.63228289],[139.81560959,35.63245672],[139.81560769,35.63247041]]]}},{"type":"Feature","properties":{"code":"13108","nameJa":"江東区","source":"MLIT N03 2024"},"geometry":{"type":"Polygon","coordinates":[[[139.81944552,35.63055711],[139.81944189,35.63057603],[139.81834214,35.63047036],[139.81834555,35.63044972],[139.81944552,35.63055711]]]}},{"type":"Feature","properties":{"code":"13108","nameJa":"江東区","source":"MLIT N03 2024"},"geometry":{"type":"Polygon","coordinates":[[[139.81956852,35.63739397],[139.81847442,35.63729084],[139.8195745,35.63737567],[139.81956852,35.63739397]]]}},{"type":"Feature","properties":{"code":"13108","nameJa":"江東区","source":"MLIT N03 2024"},"geometry":{"type":"Polygon","coordinates":[[[139.81042073,35.63074177],[139.81040172,35.6307398],[139.81055562,35.62971253],[139.81057458,35.62971441],[139.81042073,35.63074177]]]}},{"type":"Feature","properties":{"code":"13108","nameJa":"江東区","source":"MLIT N03 2024"},"geometry":{"type":"Polygon","coordinates":[[[139.81125364,35.63660072],[139.81058275,35.63653659],[139.81167431,35.63663675],[139.81125364,35.63660072]]]}},{"type":"Feature","properties":{"code":"13108","nameJa":"江東区","source":"MLIT N03 2024"},"geometry":{"type":"Polygon","coordinates":[[[139.81715949,35.63714436],[139.81715661,35.63716447],[139.81667022,35.63711756],[139.81666667,35.6371172],[139.81628355,35.63708025],[139.81628655,35.63706005],[139.81666667,35.63709675],[139.81667022,35.63709711],[139.81715949,35.63714436]]]}},{"type":"Feature","properties":{"code":"13108","nameJa":"江東区","source":"MLIT N03 2024"},"geometry":{"type":"Polygon","coordinates":[[[139.81496742,35.63695297],[139.81409075,35.6368682],[139.81497031,35.63693295],[139.81496742,35.63695297]]]}},{"type":"Feature","properties":{"code":"13108","nameJa":"江東区","source":"MLIT N03 2024"},"geometry":{"type":"Polygon","coordinates":[[[139.81606042,35.63706084],[139.8151855,35.636976],[139.81606319,35.63704156],[139.81606042,35.63706084]]]}},{"type":"Feature","properties":{"code":"13108","nameJa":"江東区","source":"MLIT N03 2024"},"geometry":{"type":"Polygon","coordinates":[[[139.80945148,35.63750905],[139.80931178,35.63836217],[139.80943261,35.63750725],[139.80945148,35.63750905]]]}},{"type":"Feature","properties":{"code":"13108","nameJa":"江東区","source":"MLIT N03 2024"},"geometry":{"type":"Polygon","coordinates":[[[139.81386584,35.63684833],[139.81299156,35.63676336],[139.81386859,35.63682951],[139.81386584,35.63684833]]]}},{"type":"Feature","properties":{"code":"13108","nameJa":"江東区","source":"MLIT N03 2024"},"geometry":{"type":"Polygon","coordinates":[[[139.81825214,35.63726764],[139.81737767,35.63718595],[139.81825681,35.63724944],[139.81825214,35.63726764]]]}},{"type":"Feature","properties":{"code":"13108","nameJa":"江東区","source":"MLIT N03 2024"},"geometry":{"type":"Polygon","coordinates":[[[139.81277027,35.63674287],[139.81189448,35.63665808],[139.81277292,35.63672467],[139.81277027,35.63674287]]]}},{"type":"Feature","properties":{"code":"13108","nameJa":"江東区","source":"MLIT N03 2024"},"geometry":{"type":"Polygon","coordinates":[[[139.81906817,35.63915828],[139.81903372,35.63911923],[139.81905966,35.639105],[139.81907875,35.63912536],[139.819346,35.63895333],[139.81956608,35.63897625],[139.81957083,35.63895128],[139.8196055,35.63895541],[139.8195973,35.63900284],[139.81935361,35.63897641],[139.81906817,35.63915828]]]}},{"type":"Feature","properties":{"code":"13108","nameJa":"江東区","source":"MLIT N03 2024"},"geometry":{"type":"Polygon","coordinates":[[[139.83110134,35.63732489],[139.83033416,35.63725151],[139.83110409,35.63730623],[139.83110134,35.63732489]]]}},{"type":"Feature","properties":{"code":"13108","nameJa":"江東区","source":"MLIT N03 2024"},"geometry":{"type":"Polygon","coordinates":[[[139.82935064,35.63713833],[139.8301162,35.63723059],[139.82934781,35.637157],[139.82935064,35.63713833]]]}},{"type":"Feature","properties":{"code":"13108","nameJa":"江東区","source":"MLIT N03 2024"},"geometry":{"type":"Polygon","coordinates":[[[139.82814348,35.63704147],[139.82737442,35.63694897],[139.82814589,35.637023],[139.82814348,35.63704147]]]}},{"type":"Feature","properties":{"code":"13108","nameJa":"江東区","source":"MLIT N03 2024"},"geometry":{"type":"Polygon","coordinates":[[[139.82912872,35.63713589],[139.82836141,35.63706241],[139.82913224,35.63711741],[139.82912872,35.63713589]]]}},{"type":"Feature","properties":{"code":"13108","nameJa":"江東区","source":"MLIT N03 2024"},"geometry":{"type":"Polygon","coordinates":[[[139.82771995,35.63495241],[139.82843453,35.63502087],[139.82769355,35.63494992],[139.82771995,35.63495241]]]}},{"type":"Feature","properties":{"code":"13108","nameJa":"江東区","source":"MLIT N03 2024"},"geometry":{"type":"Polygon","coordinates":[[[139.831368,35.63530236],[139.83136636,35.63532103],[139.8306237,35.63524989],[139.83062703,35.63523122],[139.831368,35.63530236]]]}},{"type":"Feature","properties":{"code":"13108","nameJa":"江東区","source":"MLIT N03 2024"},"geometry":{"type":"Polygon","coordinates":[[[139.82939039,35.6351315],[139.82864949,35.63506056],[139.82939336,35.63511303],[139.82939039,35.6351315]]]}},{"type":"Feature","properties":{"code":"13108","nameJa":"江東区","source":"MLIT N03 2024"},"geometry":{"type":"Polygon","coordinates":[[[139.82840981,35.64071659],[139.82841248,35.64069867],[139.8291818,35.64077259],[139.82917914,35.64079044],[139.82840981,35.64071659]]]}},{"type":"Feature","properties":{"code":"13108","nameJa":"江東区","source":"MLIT N03 2024"},"geometry":{"type":"Polygon","coordinates":[[[139.83009917,35.6408778],[139.82939558,35.6408102],[139.83016423,35.64088403],[139.83009917,35.6408778]]]}},{"type":"Feature","properties":{"code":"13108","nameJa":"江東区","source":"MLIT N03 2024"},"geometry":{"type":"Polygon","coordinates":[[[139.83040256,35.63522861],[139.82966464,35.63515792],[139.83040698,35.63521014],[139.83040256,35.63522861]]]}},{"type":"Feature","properties":{"code":"13108","nameJa":"江東区","source":"MLIT N03 2024"},"geometry":{"type":"Polygon","coordinates":[[[139.82742111,35.6406212],[139.82742375,35.64060325],[139.82819195,35.64067928],[139.8281893,35.64069711],[139.82742111,35.6406212]]]}},{"type":"Feature","properties":{"code":"13108","nameJa":"江東区","source":"MLIT N03 2024"},"geometry":{"type":"Polygon","coordinates":[[[139.83038331,35.64088595],[139.83114995,35.64096014],[139.83038075,35.64090386],[139.83038331,35.64088595]]]}},{"type":"Feature","properties":{"code":"13108","nameJa":"江東区","source":"MLIT N03 2024"},"geometry":{"type":"Polygon","coordinates":[[[139.83137167,35.64097977],[139.83213581,35.64105489],[139.83136903,35.64099764],[139.83137167,35.64097977]]]}},{"type":"Feature","properties":{"code":"13108","nameJa":"江東区","source":"MLIT N03 2024"},"geometry":{"type":"Polygon","coordinates":[[[139.82913686,35.64263692],[139.82988003,35.64270869],[139.82913423,35.64265486],[139.82913686,35.64263692]]]}},{"type":"Feature","properties":{"code":"13108","nameJa":"江東区","source":"MLIT N03 2024"},"geometry":{"type":"Polygon","coordinates":[[[139.82817597,35.64254484],[139.82891844,35.64261653],[139.82817341,35.64256278],[139.82817597,35.64254484]]]}},{"type":"Feature","properties":{"code":"13108","nameJa":"江東区","source":"MLIT N03 2024"},"geometry":{"type":"Polygon","coordinates":[[[139.83184866,35.64291533],[139.83110739,35.64284403],[139.83185119,35.64289747],[139.83184866,35.64291533]]]}},{"type":"Feature","properties":{"code":"13108","nameJa":"江東区","source":"MLIT N03 2024"},"geometry":{"type":"Polygon","coordinates":[[[139.83088986,35.64282292],[139.83014803,35.64275286],[139.83089239,35.64280497],[139.83088986,35.64282292]]]}},{"type":"Feature","properties":{"code":"13108","nameJa":"江東区","source":"MLIT N03 2024"},"geometry":{"type":"Polygon","coordinates":[[[139.82073309,35.62930025],[139.82076903,35.62903705],[139.82076925,35.62903525],[139.82072795,35.62903128],[139.82073224,35.62900036],[139.82079397,35.62900811],[139.82075253,35.62930025],[139.820748,35.62933197],[139.8206865,35.62932647],[139.82069047,35.62930005],[139.82073253,35.62930459],[139.82073309,35.62930025]]]}},{"type":"Feature","properties":{"code":"13108","nameJa":"江東区","source":"MLIT N03 2024"},"geometry":{"type":"Polygon","coordinates":[[[139.81098929,35.62873543],[139.81096776,35.62873327],[139.81100315,35.62850676],[139.81102467,35.62850902],[139.81098929,35.62873543]]]}},{"type":"Feature","properties":{"code":"13108","nameJa":"江東区","source":"MLIT N03 2024"},"geometry":{"type":"Polygon","coordinates":[[[139.81882708,35.6392472],[139.81881506,35.63923584],[139.8190302,35.6390838],[139.81904222,35.63909508],[139.81882708,35.6392472]]]}},{"type":"Feature","properties":{"code":"13108","nameJa":"江東区","source":"MLIT N03 2024"},"geometry":{"type":"Polygon","coordinates":[[[139.79037608,35.60646993],[139.79031772,35.6064379],[139.79035538,35.60639203],[139.79041387,35.60642395],[139.79037608,35.60646993]]]}},{"type":"Feature","properties":{"code":"13108","nameJa":"江東区","source":"MLIT N03 2024"},"geometry":{"type":"Polygon","coordinates":[[[139.81987645,35.63902847],[139.81981484,35.63902253],[139.81982202,35.63897359],[139.81988365,35.63897961],[139.81987645,35.63902847]]]}},{"type":"Feature","properties":{"code":"13108","nameJa":"江東区","source":"MLIT N03 2024"},"geometry":{"type":"Polygon","coordinates":[[[139.81003205,35.63525059],[139.80997817,35.63524553],[139.80998139,35.63522217],[139.81003536,35.63522725],[139.81003205,35.63525059]]]}},{"type":"Feature","properties":{"code":"13109","nameJa":"品川区","source":"MLIT N03 2024"},"geometry":{"type":"Polygon","coordinates":[[[139.69543772,35.60772961],[139.69679494,35.60513377],[139.70106745,35.6014135],[139.71448552,35.59996903],[139.71468523,35.59751069],[139.71753745,35.59623344],[139.71918328,35.5918482],[139.72032745,35.59239623],[139.72108827,35.59429011],[139.72824163,35.59438289],[139.7290083,35.59373733],[139.72890109,35.59271317],[139.73055109,35.59215703],[139.72893355,35.58883344],[139.73010827,35.58737151],[139.73587467,35.58736813],[139.73594105,35.58805036],[139.73863109,35.58786453],[139.74521552,35.58974533],[139.74654131,35.59016906],[139.74695713,35.59219133],[139.74771572,35.6027185],[139.74844995,35.60277844],[139.75071834,35.60643227],[139.75161097,35.62128613],[139.75221243,35.62211913],[139.75167882,35.62217708],[139.75187744,35.62471625],[139.75025297,35.62482352],[139.74602239,35.62311253],[139.74443489,35.62339475],[139.74333462,35.6251342],[139.73778652,35.62453228],[139.73750737,35.62344617],[139.7353993,35.623202],[139.73394959,35.62611339],[139.7312293,35.62633451],[139.73152322,35.62871172],[139.73086156,35.63041089],[139.72883377,35.63165478],[139.72886462,35.63264505],[139.72830572,35.63284395],[139.72773017,35.63190172],[139.72671628,35.63220839],[139.72685294,35.63427061],[139.72599849,35.63503367],[139.72221239,35.63597895],[139.71996236,35.63457731],[139.7178282,35.63504536],[139.71820791,35.6364648],[139.71667905,35.63826036],[139.71679655,35.63979647],[139.71972908,35.641432],[139.717641,35.64166117],[139.71534267,35.64037869],[139.71461375,35.6385662],[139.71322875,35.63755175],[139.7144393,35.63413564],[139.71463345,35.62904675],[139.70750338,35.62619928],[139.70713311,35.62547205],[139.70401616,35.62470844],[139.70250811,35.62482903],[139.70146506,35.62589569],[139.69613864,35.62481486],[139.70398669,35.62187875],[139.70267114,35.62144264],[139.70238058,35.62012959],[139.69581608,35.61343017],[139.69554772,35.60830823],[139.69543772,35.60772961]]]}},{"type":"Feature","properties":{"code":"13109","nameJa":"品川区","source":"MLIT N03 2024"},"geometry":{"type":"Polygon","coordinates":[[[139.7495499,35.58885813],[139.75601333,35.58925447],[139.75596969,35.58492977],[139.7625675,35.58500975],[139.76256173,35.59460947],[139.76541672,35.59448195],[139.766797,35.59256528],[139.77314889,35.59575685],[139.76347875,35.60871722],[139.7619463,35.61464933],[139.76024949,35.61486014],[139.75977523,35.61539536],[139.76028309,35.61580236],[139.7579954,35.6176734],[139.75744519,35.61699395],[139.7569463,35.61750508],[139.75636833,35.61700606],[139.75635711,35.61766226],[139.75301861,35.61764781],[139.75167275,35.60469082],[139.74900436,35.60072758],[139.74833151,35.59207559],[139.74943302,35.59213305],[139.75018197,35.59135401],[139.74952888,35.58885923],[139.7495499,35.58885813]]]}},{"type":"Feature","properties":{"code":"13109","nameJa":"品川区","source":"MLIT N03 2024"},"geometry":{"type":"Polygon","coordinates":[[[139.7556863,35.62404417],[139.75350734,35.62404856],[139.75286694,35.62142031],[139.75321253,35.61899507],[139.75940222,35.61903769],[139.75941297,35.62800006],[139.75743244,35.62793],[139.75754911,35.62409278],[139.75615075,35.62405639],[139.7556863,35.62404417]]]}},{"type":"Feature","properties":{"code":"13109","nameJa":"品川区","source":"MLIT N03 2024"},"geometry":{"type":"Polygon","coordinates":[[[139.77199025,35.62229553],[139.76873246,35.62643568],[139.76759861,35.62581675],[139.76765686,35.62207713],[139.77062615,35.61873586],[139.77359552,35.62030664],[139.77206109,35.6222022],[139.77199025,35.62229553]]]}},{"type":"Feature","properties":{"code":"13109","nameJa":"品川区","source":"MLIT N03 2024"},"geometry":{"type":"Polygon","coordinates":[[[139.74948594,35.59155008],[139.74946839,35.59155159],[139.74945195,35.59155078],[139.74944014,35.5915485],[139.7494365,35.59154031],[139.74943475,35.59152995],[139.74944051,35.59151308],[139.74944978,35.59149625],[139.74946747,35.59146777],[139.74948128,35.59145372],[139.74950051,35.59143553],[139.74952139,35.59140911],[139.74953842,35.59139147],[139.74955244,35.59137867],[139.74957122,35.59136344],[139.74958986,35.59135195],[139.74960567,35.59134544],[139.74961781,35.59134213],[139.74963158,35.59134205],[139.74964528,35.59134539],[139.74965409,35.59135503],[139.74965531,35.5913702],[139.7496525,35.59139408],[139.74964464,35.59142264],[139.74963481,35.59144364],[139.74961866,35.59146769],[139.74960639,35.591485],[139.74958706,35.5915038],[139.74956861,35.59152039],[139.74955039,35.59153264],[139.74952886,35.59154208],[139.74950525,35.5915472],[139.74948594,35.59155008]]]}},{"type":"Feature","properties":{"code":"13109","nameJa":"品川区","source":"MLIT N03 2024"},"geometry":{"type":"Polygon","coordinates":[[[139.75689083,35.61767721],[139.75689041,35.61764052],[139.7573301,35.61764413],[139.75732908,35.61767893],[139.75689083,35.61767721]]]}},{"type":"Feature","properties":{"code":"13110","nameJa":"目黒区","source":"MLIT N03 2024"},"geometry":{"type":"Polygon","coordinates":[[[139.68053044,35.60445408],[139.68145156,35.60450408],[139.68208988,35.6058402],[139.68475713,35.60533769],[139.68426856,35.61321017],[139.68612772,35.61168433],[139.69130384,35.61092905],[139.69539272,35.60749239],[139.69581608,35.61343017],[139.70238058,35.62012959],[139.70267114,35.62144264],[139.70398669,35.62187875],[139.69613864,35.62481486],[139.70146506,35.62589569],[139.70250811,35.62482903],[139.70401616,35.62470844],[139.70713311,35.62547205],[139.70750338,35.62619928],[139.71463345,35.62904675],[139.7144393,35.63413564],[139.71322875,35.63755175],[139.71461375,35.6385662],[139.71534267,35.64037869],[139.717641,35.64166117],[139.71523601,35.64262314],[139.71033458,35.64145814],[139.70862375,35.64200759],[139.69589097,35.65068178],[139.6870235,35.661809],[139.67965903,35.66381539],[139.67500292,35.66387959],[139.67949733,35.65732931],[139.68420706,35.65227264],[139.68430173,35.64376597],[139.68637061,35.63897459],[139.68134472,35.62982933],[139.6795972,35.62506767],[139.67796969,35.62534767],[139.67640025,35.62724769],[139.67199384,35.62970797],[139.66415214,35.63189741],[139.66148297,35.63170631],[139.66227131,35.63016103],[139.66180908,35.62748464],[139.66345519,35.62677603],[139.66393377,35.62395075],[139.66619073,35.62097908],[139.66567545,35.62070075],[139.66649572,35.61852547],[139.66477017,35.61827328],[139.664866,35.6167305],[139.66322097,35.61566189],[139.66267681,35.61197189],[139.66376569,35.60984244],[139.66284348,35.60934467],[139.66510737,35.60748828],[139.66830903,35.60649189],[139.67324934,35.60814853],[139.67700044,35.60809159],[139.67924766,35.60567714],[139.68028073,35.60066659],[139.68093545,35.60064714],[139.68045462,35.60441992],[139.68053044,35.60445408]]]}},{"type":"Feature","properties":{"code":"13111","nameJa":"大田区","source":"MLIT N03 2024"},"geometry":{"type":"Polygon","coordinates":[[[139.74883469,35.54428341],[139.75685358,35.54450175],[139.7680791,35.53933922],[139.77649638,35.53447],[139.77878519,35.53699911],[139.78200377,35.5388195],[139.78441691,35.53538033],[139.78654492,35.53580439],[139.78761942,35.53431256],[139.79489842,35.53213287],[139.80917119,35.53878603],[139.80395569,35.54603028],[139.80075278,35.54894008],[139.79145647,35.56294508],[139.79084423,35.56293487],[139.78971603,35.56523741],[139.7892091,35.56505995],[139.78800161,35.56675195],[139.78799012,35.56776184],[139.78741224,35.56758361],[139.78632814,35.56910825],[139.78646652,35.56998769],[139.78543652,35.57056056],[139.77099667,35.56897372],[139.76373326,35.56046253],[139.76101969,35.56316314],[139.75859178,35.5643678],[139.7556847,35.56273031],[139.75495258,35.56154623],[139.75339703,35.56225061],[139.74978423,35.5666258],[139.75023766,35.56737805],[139.75635525,35.56907064],[139.75409261,35.5744848],[139.75234185,35.57562111],[139.75056403,35.57522231],[139.74987211,35.57618647],[139.75169185,35.57717917],[139.75209722,35.57896267],[139.74741114,35.58951922],[139.74654131,35.59016906],[139.73863109,35.58786453],[139.73594105,35.58805036],[139.73587467,35.58736813],[139.73010827,35.58737151],[139.72893355,35.58883344],[139.73055109,35.59215703],[139.72890109,35.59271317],[139.7290083,35.59373733],[139.72824163,35.59438289],[139.72108827,35.59429011],[139.72032745,35.59239623],[139.71918328,35.5918482],[139.71753745,35.59623344],[139.71468523,35.59751069],[139.71448552,35.59996903],[139.70106745,35.6014135],[139.69679494,35.60513377],[139.69482244,35.60840905],[139.69095883,35.61107795],[139.68612772,35.61168433],[139.68400384,35.61309156],[139.68502798,35.60644964],[139.68475713,35.60533769],[139.68208988,35.6058402],[139.68145156,35.60450408],[139.680411,35.60440047],[139.68066959,35.59490436],[139.67565345,35.59178689],[139.66967012,35.59910051],[139.66873372,35.59818633],[139.666839,35.59893161],[139.66688927,35.59954995],[139.66506789,35.59897023],[139.6643965,35.59966577],[139.66268202,35.59841272],[139.6596898,35.59997717],[139.65744036,35.59894105],[139.65577645,35.59647497],[139.653807,35.59732969],[139.65297477,35.59593692],[139.65412756,35.59482331],[139.65557839,35.59467775],[139.655692,35.59400664],[139.65598117,35.5945108],[139.65819477,35.59352387],[139.65705034,35.59341608],[139.65513864,35.59014636],[139.65879533,35.58943441],[139.66380144,35.58980553],[139.66870869,35.58559022],[139.67598947,35.56688414],[139.67878973,35.56298775],[139.68961776,35.55728689],[139.69829442,35.55597186],[139.70373553,35.55260769],[139.70422581,35.55117408],[139.70353355,35.54941103],[139.69793547,35.54466384],[139.69794267,35.54145161],[139.70074153,35.53777328],[139.7047918,35.53629297],[139.71013847,35.53645741],[139.71820377,35.53830489],[139.72237158,35.54150767],[139.72656328,35.54357486],[139.73035577,35.54291403],[139.73364798,35.54086569],[139.734638,35.54098347],[139.73747109,35.54423372],[139.73940664,35.54512456],[139.74787163,35.54398259],[139.74883469,35.54428341]]]}},{"type":"Feature","properties":{"code":"13111","nameJa":"大田区","source":"MLIT N03 2024"},"geometry":{"type":"Polygon","coordinates":[[[139.74998109,35.58779669],[139.75407409,35.57834011],[139.75584041,35.57707392],[139.762477,35.57715551],[139.767813,35.581516],[139.76911856,35.58009844],[139.77040948,35.58106469],[139.76787261,35.57871886],[139.76653128,35.57854325],[139.76667047,35.5771442],[139.78341834,35.57705651],[139.7851355,35.5772495],[139.78659514,35.57965305],[139.78733052,35.5796886],[139.78727026,35.57902273],[139.78704034,35.58045869],[139.78183192,35.58443278],[139.78402425,35.58605017],[139.78141973,35.58453708],[139.7777975,35.58716123],[139.77853353,35.58648428],[139.7774432,35.58616134],[139.77783323,35.58584438],[139.777162,35.58522736],[139.77633722,35.58582731],[139.77557012,35.58512121],[139.77600652,35.58563192],[139.7754879,35.58518089],[139.77288664,35.58747376],[139.76905896,35.58401068],[139.77677891,35.59028767],[139.77314889,35.59575685],[139.766797,35.59256528],[139.76541672,35.59448195],[139.76256173,35.59460947],[139.7625675,35.58500975],[139.75596969,35.58492977],[139.75601333,35.58925447],[139.75027083,35.58934784],[139.74947498,35.58886186],[139.74990789,35.58795033],[139.74998109,35.58779669]]]}},{"type":"Feature","properties":{"code":"13111","nameJa":"大田区","source":"MLIT N03 2024"},"geometry":{"type":"Polygon","coordinates":[[[139.7580317,35.56946903],[139.75847966,35.56844192],[139.76561056,35.56489633],[139.77379236,35.5745755],[139.76414628,35.57515375],[139.76380364,35.57444003],[139.76173698,35.57490628],[139.75760844,35.57446039],[139.75714122,35.57150056],[139.75796003,35.569639],[139.7580317,35.56946903]]]}},{"type":"Feature","properties":{"code":"13111","nameJa":"大田区","source":"MLIT N03 2024"},"geometry":{"type":"Polygon","coordinates":[[[139.80494377,35.5969965],[139.80442584,35.59763961],[139.79447687,35.59218225],[139.80583248,35.58544775],[139.81171486,35.58863854],[139.80551139,35.59628814],[139.80494377,35.5969965]]]}},{"type":"Feature","properties":{"code":"13111","nameJa":"大田区","source":"MLIT N03 2024"},"geometry":{"type":"Polygon","coordinates":[[[139.80833601,35.53221311],[139.80708869,35.53110675],[139.81096442,35.52819808],[139.82602778,35.54157017],[139.8230875,35.54384372],[139.81980192,35.54238325],[139.80959886,35.53333328],[139.80833601,35.53221311]]]}},{"type":"Feature","properties":{"code":"13111","nameJa":"大田区","source":"MLIT N03 2024"},"geometry":{"type":"Polygon","coordinates":[[[139.75331759,35.562498],[139.7534963,35.56260367],[139.75330822,35.56281584],[139.75312939,35.56271014],[139.75331759,35.562498]]]}},{"type":"Feature","properties":{"code":"13112","nameJa":"世田谷区","source":"MLIT N03 2024"},"geometry":{"type":"Polygon","coordinates":[[[139.62930197,35.60800414],[139.63184781,35.60683303],[139.6317992,35.60579108],[139.63487503,35.60362775],[139.6370028,35.60304997],[139.63988808,35.60013025],[139.64876503,35.59504053],[139.65043253,35.59258414],[139.65513864,35.59014636],[139.65705034,35.59341608],[139.65819477,35.59352387],[139.65598117,35.5945108],[139.655692,35.59400664],[139.65557839,35.59467775],[139.65412756,35.59482331],[139.65297477,35.59593692],[139.653807,35.59732969],[139.65577645,35.59647497],[139.65744036,35.59894105],[139.6596898,35.59997717],[139.66268202,35.59841272],[139.6643965,35.59966577],[139.66506789,35.59897023],[139.66688927,35.59954995],[139.666839,35.59893161],[139.66873372,35.59818633],[139.66967012,35.59910051],[139.67565345,35.59178689],[139.68066959,35.59490436],[139.6802235,35.60302686],[139.67924766,35.60567714],[139.67725767,35.60793936],[139.67340377,35.60817492],[139.66830903,35.60649189],[139.66510737,35.60748828],[139.66284348,35.60934467],[139.66376569,35.60984244],[139.66267681,35.61197189],[139.66322097,35.61566189],[139.664866,35.6167305],[139.66477017,35.61827328],[139.66649572,35.61852547],[139.66567545,35.62070075],[139.66619073,35.62097908],[139.66393377,35.62395075],[139.66345519,35.62677603],[139.66180908,35.62748464],[139.66227131,35.63016103],[139.66148297,35.63170631],[139.66415214,35.63189741],[139.67199384,35.62970797],[139.67640025,35.62724769],[139.67796969,35.62534767],[139.6795972,35.62506767],[139.68134472,35.62982933],[139.68637061,35.63897459],[139.68430173,35.64376597],[139.68471536,35.64589097],[139.68390953,35.64920403],[139.68458706,35.65135041],[139.67418625,35.66459875],[139.67280597,35.66748069],[139.67270433,35.67229567],[139.66205927,35.67144347],[139.66175623,35.67252292],[139.65032975,35.66990269],[139.64696501,35.66811492],[139.64127914,35.66719523],[139.63911217,35.66584384],[139.63740355,35.66587856],[139.63668519,35.66601439],[139.63693606,35.66668272],[139.63259519,35.66808495],[139.62504739,35.66913469],[139.62503183,35.670133],[139.62352111,35.67037225],[139.62101798,35.67299439],[139.61248097,35.67616689],[139.61184272,35.6755432],[139.61180494,35.67636864],[139.61031275,35.67664351],[139.61331706,35.67407484],[139.61328936,35.67290356],[139.61655883,35.67264047],[139.61618659,35.66990161],[139.61571769,35.66942467],[139.61098881,35.67008714],[139.61052158,35.67085492],[139.60891713,35.67035187],[139.60878358,35.67592017],[139.60822997,35.67643878],[139.60736302,35.67595517],[139.60684553,35.67773322],[139.60326361,35.68064931],[139.59661031,35.68197487],[139.58559339,35.68268067],[139.59180311,35.68167789],[139.58532005,35.68204511],[139.58828003,35.67964428],[139.5865017,35.67694095],[139.58672445,35.67458622],[139.58740361,35.67402372],[139.58344975,35.67403677],[139.58248864,35.673394],[139.58850136,35.67051375],[139.59012384,35.66579236],[139.58656051,35.6639582],[139.58734328,35.66258959],[139.58896856,35.66244513],[139.59001798,35.66117489],[139.58993267,35.65711128],[139.59091822,35.65535851],[139.59233433,35.65543211],[139.59286183,35.65418239],[139.59308348,35.65152436],[139.59196124,35.65135877],[139.59206234,35.64590992],[139.58956567,35.64514075],[139.5876382,35.64616739],[139.58704372,35.6431435],[139.58443594,35.64114378],[139.58766786,35.63506713],[139.59140645,35.63306269],[139.5912709,35.63105464],[139.59294756,35.62942714],[139.59238256,35.62752078],[139.59411642,35.62682772],[139.59248752,35.62380189],[139.5902153,35.62453439],[139.58957503,35.62381356],[139.58933253,35.62122467],[139.59023555,35.61843078],[139.59310056,35.61757051],[139.59955195,35.61849217],[139.60587584,35.61545133],[139.60899416,35.61647717],[139.61219167,35.61585303],[139.61558139,35.61332775],[139.61852083,35.61378636],[139.62372336,35.61116053],[139.62543611,35.60940859],[139.62860558,35.6082222],[139.62930197,35.60800414]]]}},{"type":"Feature","properties":{"code":"13113","nameJa":"渋谷区","source":"MLIT N03 2024"},"geometry":{"type":"Polygon","coordinates":[[[139.71102114,35.66637367],[139.71470811,35.66959169],[139.71373506,35.67031086],[139.71493341,35.67299447],[139.71700564,35.6725728],[139.71485956,35.67507808],[139.71289425,35.67461836],[139.71290511,35.6772878],[139.71478959,35.68086225],[139.71140739,35.68336725],[139.70740764,35.6844628],[139.70578017,35.68804808],[139.70271014,35.68777197],[139.70210294,35.68916947],[139.69502956,35.68664895],[139.68767309,35.68159369],[139.6856509,35.68378728],[139.68493283,35.68574561],[139.68579506,35.68618784],[139.6859798,35.68789339],[139.68418839,35.687557],[139.68321895,35.68871644],[139.68481012,35.69124256],[139.68445538,35.6920245],[139.68362817,35.69197033],[139.68033562,35.68979756],[139.67130272,35.68149289],[139.66783881,35.679949],[139.66539156,35.67698459],[139.6621793,35.67570292],[139.66159514,35.67475069],[139.66205927,35.67144347],[139.67270433,35.67229567],[139.67280597,35.66748069],[139.67469986,35.66401653],[139.67993795,35.66376677],[139.6870235,35.661809],[139.69589097,35.65068178],[139.70862375,35.64200759],[139.71033458,35.64145814],[139.71523601,35.64262314],[139.71888406,35.64168644],[139.72131686,35.64440922],[139.72249214,35.64439728],[139.72356022,35.64670117],[139.72297911,35.64711784],[139.72240552,35.65232977],[139.72155803,35.65361617],[139.72279278,35.65607531],[139.72197389,35.65560336],[139.71804528,35.65698228],[139.71497997,35.65714284],[139.71287776,35.65845005],[139.7137925,35.65975839],[139.70856389,35.664067],[139.71101392,35.66636561],[139.71102114,35.66637367]]]}},{"type":"Feature","properties":{"code":"13114","nameJa":"中野区","source":"MLIT N03 2024"},"geometry":{"type":"Polygon","coordinates":[[[139.67457423,35.72124469],[139.67568477,35.72149914],[139.67536397,35.7248808],[139.67796905,35.73067856],[139.67300767,35.73355244],[139.67145542,35.73354051],[139.67039319,35.73233105],[139.66835567,35.73207328],[139.66817511,35.73139495],[139.66498703,35.7312572],[139.66258864,35.72724497],[139.65962667,35.72663553],[139.65962167,35.72583],[139.65047384,35.72688584],[139.6474355,35.726745],[139.64739713,35.72548944],[139.64357377,35.72530833],[139.63993433,35.72630972],[139.639241,35.72785723],[139.63809878,35.72815361],[139.63643047,35.73227833],[139.63507353,35.73230444],[139.63342217,35.73534695],[139.62716825,35.73510556],[139.62730326,35.7339575],[139.62434263,35.72984222],[139.62899591,35.72101003],[139.6318737,35.71971892],[139.63135258,35.71851339],[139.63218895,35.716947],[139.63696786,35.71649672],[139.64178814,35.714757],[139.64166283,35.71281228],[139.64284173,35.71150339],[139.65103981,35.70899395],[139.65822178,35.70922089],[139.65819898,35.70503784],[139.66090953,35.70467784],[139.66108506,35.70142672],[139.66253756,35.6992412],[139.66171114,35.69726508],[139.66061947,35.69652369],[139.66116778,35.69519592],[139.6646453,35.69563841],[139.66666837,35.69373675],[139.66776947,35.69378175],[139.66721586,35.69330369],[139.66754667,35.6917512],[139.66675056,35.69151841],[139.66640805,35.69042508],[139.6624055,35.68743484],[139.65921992,35.68668539],[139.65966297,35.68473205],[139.66018492,35.68506067],[139.66057158,35.68443205],[139.65952684,35.68326541],[139.65927156,35.6819032],[139.66047294,35.68093513],[139.65964711,35.67992986],[139.661461,35.6804018],[139.66257988,35.67943375],[139.66499934,35.67901541],[139.66482267,35.67761292],[139.6632385,35.67790236],[139.66412073,35.67634792],[139.66783881,35.679949],[139.67130272,35.68149289],[139.67506056,35.6845112],[139.68033562,35.68979756],[139.68399012,35.69199061],[139.68374039,35.69261395],[139.68561209,35.69421395],[139.68837659,35.69906475],[139.68739659,35.70221947],[139.68837219,35.70691472],[139.69430808,35.71091361],[139.69153224,35.71132556],[139.69104698,35.71052251],[139.69004141,35.71082611],[139.69007558,35.71148361],[139.68896365,35.71143805],[139.68278275,35.71012251],[139.68038942,35.71121167],[139.68185056,35.71315584],[139.68070445,35.71449389],[139.67926639,35.71469833],[139.67969114,35.71637361],[139.67910086,35.71827861],[139.67544224,35.71981917],[139.67541781,35.71924833],[139.67358445,35.71862028],[139.67367613,35.72026305],[139.67445947,35.72071859],[139.67457423,35.72124469]]]}},{"type":"Feature","properties":{"code":"13115","nameJa":"杉並区","source":"MLIT N03 2024"},"geometry":{"type":"Polygon","coordinates":[[[139.64076438,35.66664467],[139.64696501,35.66811492],[139.65032975,35.66990269],[139.66175623,35.67252292],[139.66205514,35.67562208],[139.66412073,35.67634792],[139.6632385,35.67790236],[139.66490878,35.67770986],[139.66499934,35.67901541],[139.6640435,35.67943959],[139.66257988,35.67943375],[139.661461,35.6804018],[139.65964711,35.67992986],[139.66047294,35.68093513],[139.65927156,35.6819032],[139.65952684,35.68326541],[139.66057158,35.68443205],[139.66018492,35.68506067],[139.65966297,35.68473205],[139.65921992,35.68668539],[139.6624055,35.68743484],[139.66640805,35.69042508],[139.66675056,35.69151841],[139.66754667,35.6917512],[139.66721586,35.69330369],[139.66776947,35.69378175],[139.66666837,35.69373675],[139.6646453,35.69563841],[139.66116778,35.69519592],[139.66061947,35.69652369],[139.66171114,35.69726508],[139.66253756,35.6992412],[139.66108506,35.70142672],[139.66090953,35.70467784],[139.65819898,35.70503784],[139.65822178,35.70922089],[139.65103981,35.70899395],[139.64284173,35.71150339],[139.64166283,35.71281228],[139.64178814,35.714757],[139.63696786,35.71649672],[139.63218895,35.716947],[139.63135258,35.71851339],[139.6318737,35.71971892],[139.6296737,35.72051336],[139.62837842,35.72188697],[139.6243882,35.72926892],[139.62454542,35.73014556],[139.61539458,35.73028528],[139.60397453,35.72686308],[139.60194814,35.72600808],[139.59979756,35.72391447],[139.59565506,35.72217169],[139.59335864,35.71806975],[139.58945364,35.72028059],[139.58579448,35.71891641],[139.58496694,35.71645059],[139.58681497,35.71326475],[139.58665136,35.71191225],[139.59547326,35.70543505],[139.59289239,35.70124647],[139.59025486,35.69481953],[139.58828681,35.69561703],[139.58671652,35.69396287],[139.59405481,35.68899677],[139.59056453,35.68700095],[139.59361228,35.68412789],[139.59308949,35.68290289],[139.59417864,35.68214067],[139.60326361,35.68064931],[139.60563333,35.67878989],[139.60684553,35.67773322],[139.60736302,35.67595517],[139.60822997,35.67643878],[139.60878358,35.67592017],[139.60891713,35.67035187],[139.61052158,35.67085492],[139.61098881,35.67008714],[139.61571769,35.66942467],[139.61618659,35.66990161],[139.61655883,35.67264047],[139.61328936,35.67290356],[139.61331706,35.67407484],[139.61031275,35.67664351],[139.61180494,35.67636864],[139.61184272,35.6755432],[139.61248097,35.67616689],[139.62101798,35.67299439],[139.62352111,35.67037225],[139.62503183,35.670133],[139.62504739,35.66913469],[139.63259519,35.66808495],[139.63693606,35.66668272],[139.63668519,35.66601439],[139.63740355,35.66587856],[139.64051883,35.66648411],[139.64076438,35.66664467]]]}},{"type":"Feature","properties":{"code":"13116","nameJa":"豊島区","source":"MLIT N03 2024"},"geometry":{"type":"Polygon","coordinates":[[[139.68225844,35.7247158],[139.68272205,35.72364441],[139.6841515,35.7237908],[139.68440872,35.72251387],[139.69572652,35.72174244],[139.69897294,35.72243217],[139.69981686,35.72354605],[139.70459964,35.72301356],[139.70415659,35.72221689],[139.70536547,35.72147772],[139.70501128,35.71975633],[139.70593878,35.71885077],[139.70537652,35.71649053],[139.70456348,35.71587608],[139.70535567,35.71369969],[139.71042097,35.71345914],[139.71165764,35.71481884],[139.71441236,35.71317551],[139.71587986,35.71381328],[139.71791737,35.712703],[139.72250961,35.71226577],[139.71747294,35.71478828],[139.71831742,35.71775717],[139.71899908,35.71745078],[139.7195327,35.71837495],[139.72246272,35.71878161],[139.72472469,35.72000884],[139.72274973,35.7251488],[139.72648725,35.72705159],[139.72916197,35.72571575],[139.72987752,35.72628325],[139.73196725,35.72410436],[139.73414781,35.72557964],[139.73448864,35.72506908],[139.73603864,35.72529631],[139.73548061,35.72617741],[139.73739005,35.72689659],[139.73596842,35.72935408],[139.73908538,35.73184659],[139.7408573,35.7303602],[139.74148567,35.73072964],[139.74147066,35.73136992],[139.74352623,35.73289075],[139.74244708,35.73378714],[139.74461764,35.73583323],[139.74676986,35.73533711],[139.74919403,35.7328738],[139.75065128,35.734446],[139.75276044,35.73505739],[139.74955711,35.736541],[139.74835409,35.73869351],[139.74657436,35.73984684],[139.74616795,35.73884017],[139.74403628,35.73895544],[139.74441713,35.74078877],[139.74190019,35.7421135],[139.73457322,35.74068544],[139.73178436,35.74331295],[139.73263519,35.74508823],[139.72790908,35.74471378],[139.72449041,35.74082684],[139.72534986,35.73999072],[139.72432431,35.73974769],[139.7200118,35.74178517],[139.71951294,35.74504267],[139.7104285,35.74579267],[139.70830316,35.74163795],[139.70412283,35.73728714],[139.70381394,35.73587214],[139.702132,35.73638492],[139.70099287,35.73990825],[139.69922173,35.7397252],[139.69886591,35.74239295],[139.69453481,35.74222684],[139.69451231,35.74305489],[139.69257759,35.74363433],[139.68961144,35.74132377],[139.68076027,35.73875603],[139.68130664,35.73780297],[139.68064997,35.73778241],[139.67909523,35.73534408],[139.67924742,35.733368],[139.67734431,35.72937272],[139.68134986,35.72704439],[139.68225122,35.72474414],[139.68225844,35.7247158]]]}},{"type":"Feature","properties":{"code":"13117","nameJa":"北区","source":"MLIT N03 2024"},"geometry":{"type":"Polygon","coordinates":[[[139.75693883,35.73333323],[139.75993739,35.73157795],[139.76161489,35.73282628],[139.76132128,35.73380989],[139.76342044,35.73369239],[139.76424686,35.73443711],[139.76376241,35.73493378],[139.77112467,35.73789877],[139.76900523,35.73925933],[139.76817691,35.74146239],[139.76589053,35.7416185],[139.76393275,35.74284823],[139.76384219,35.74413739],[139.76173553,35.74377211],[139.76150387,35.74318072],[139.75719914,35.74546184],[139.75780027,35.74761017],[139.7553825,35.74757711],[139.75470416,35.74918822],[139.74977861,35.75012044],[139.75012112,35.75113878],[139.7496375,35.75118795],[139.75088698,35.75370572],[139.75758725,35.75316905],[139.75796394,35.75485517],[139.75006756,35.75646017],[139.74859367,35.75757211],[139.74828228,35.75891211],[139.74888783,35.75981072],[139.75889205,35.76519847],[139.76013903,35.7669932],[139.75927934,35.76930541],[139.75793849,35.7701782],[139.7543182,35.76816792],[139.74640623,35.76701208],[139.73672708,35.77021931],[139.73572319,35.77259292],[139.73827936,35.77874987],[139.73783297,35.78052792],[139.73856192,35.78720347],[139.73749581,35.78828069],[139.73387163,35.79004708],[139.72446217,35.78727431],[139.7231455,35.78838903],[139.72224109,35.79072653],[139.72073636,35.79142792],[139.70730219,35.79253095],[139.69685969,35.798904],[139.69063713,35.79057314],[139.68946908,35.78679675],[139.69127934,35.784409],[139.69565433,35.78245844],[139.69844128,35.78212678],[139.70215186,35.78407733],[139.70302713,35.78356789],[139.70231156,35.78144372],[139.70640423,35.76666903],[139.70949367,35.76484459],[139.7102809,35.7650182],[139.71089503,35.76362208],[139.71316837,35.76326708],[139.7152128,35.7616332],[139.72042302,35.75506184],[139.72270248,35.75322795],[139.72178547,35.74778322],[139.72220241,35.74732184],[139.72152492,35.74737933],[139.72140964,35.746311],[139.7206138,35.74669823],[139.71951294,35.74504267],[139.7200118,35.74178517],[139.72452348,35.73974769],[139.72534986,35.73999072],[139.72449041,35.74082684],[139.72790908,35.74471378],[139.73263519,35.74508823],[139.73178436,35.74331295],[139.73457322,35.74068544],[139.74190019,35.7421135],[139.74441713,35.74078877],[139.74403628,35.73895544],[139.74616795,35.73884017],[139.74657436,35.73984684],[139.74835409,35.73869351],[139.7500835,35.7361385],[139.75693864,35.73333333],[139.75693883,35.73333323]]]}},{"type":"Feature","properties":{"code":"13118","nameJa":"荒川区","source":"MLIT N03 2024"},"geometry":{"type":"Polygon","coordinates":[[[139.7573447,35.74560739],[139.76150387,35.74318072],[139.76173553,35.74377211],[139.76384219,35.74413739],[139.76393275,35.74284823],[139.76589053,35.7416185],[139.76817691,35.74146239],[139.76900523,35.73925933],[139.77112467,35.73789877],[139.76376241,35.73493378],[139.76424686,35.73443711],[139.76342044,35.73369239],[139.76132128,35.73380989],[139.76161489,35.73282628],[139.76093711,35.732206],[139.76278878,35.73074711],[139.76398739,35.73087989],[139.76605292,35.72753156],[139.76977211,35.728126],[139.77674267,35.72493572],[139.78145545,35.72461767],[139.78229739,35.72625544],[139.78445713,35.72786017],[139.78775825,35.72797461],[139.78946134,35.72874323],[139.79120581,35.73121822],[139.79268689,35.73011847],[139.79443581,35.73023069],[139.79506577,35.72897153],[139.80143053,35.7292518],[139.80971861,35.72813459],[139.81092752,35.73216403],[139.8146537,35.73759653],[139.81405897,35.73998292],[139.81157674,35.74106764],[139.80204364,35.73856847],[139.79242309,35.74077513],[139.78997531,35.74285264],[139.78847311,35.74578931],[139.78868811,35.74702487],[139.79090759,35.74848931],[139.79087008,35.75076987],[139.78879591,35.75250513],[139.78397925,35.75403653],[139.77035506,35.75364684],[139.75796394,35.75485517],[139.75758725,35.75316905],[139.75088698,35.75370572],[139.7496375,35.75118795],[139.75012112,35.75113878],[139.74977861,35.75012044],[139.75470416,35.74918822],[139.7553825,35.74757711],[139.75780027,35.74761017],[139.75743331,35.74569572],[139.7573447,35.74560739]]]}},{"type":"Feature","properties":{"code":"13119","nameJa":"板橋区","source":"MLIT N03 2024"},"geometry":{"type":"Polygon","coordinates":[[[139.67325283,35.74779184],[139.67213611,35.744526],[139.67587922,35.74539461],[139.68084061,35.74381739],[139.67909667,35.74062713],[139.68047803,35.73871492],[139.68961144,35.74132377],[139.69257759,35.74363433],[139.69451231,35.74305489],[139.69453481,35.74222684],[139.69886591,35.74239295],[139.69922173,35.7397252],[139.70099287,35.73990825],[139.702132,35.73638492],[139.70381394,35.73587214],[139.70412283,35.73728714],[139.70830316,35.74163795],[139.7104285,35.74579267],[139.71951294,35.74504267],[139.7206138,35.74669823],[139.72140964,35.746311],[139.72152492,35.74737933],[139.72220241,35.74732184],[139.72178547,35.74778322],[139.72270248,35.75322795],[139.72042302,35.75506184],[139.7152128,35.7616332],[139.71316837,35.76326708],[139.71089503,35.76362208],[139.7102809,35.7650182],[139.70949367,35.76484459],[139.70640423,35.76666903],[139.70231156,35.78144372],[139.70307822,35.78260761],[139.70275102,35.78391511],[139.69844128,35.78212678],[139.69565433,35.78245844],[139.69127934,35.784409],[139.68946908,35.78679675],[139.69063713,35.79057314],[139.6964372,35.79770928],[139.69685969,35.798904],[139.69616636,35.79928733],[139.68919914,35.80087869],[139.67838189,35.79882259],[139.66737128,35.80045453],[139.65777652,35.80050175],[139.65336231,35.80022592],[139.64787228,35.79747341],[139.64369086,35.79821841],[139.64085667,35.79794287],[139.63941022,35.79284872],[139.63791772,35.79120011],[139.63423102,35.79033539],[139.63229406,35.78895428],[139.63156708,35.78820261],[139.63213097,35.78743817],[139.63169236,35.78633595],[139.63034567,35.78536208],[139.6290665,35.78573792],[139.62787481,35.78465764],[139.62773703,35.78312903],[139.62452669,35.78081125],[139.6254528,35.77907403],[139.62518947,35.77793403],[139.62939642,35.77688097],[139.62935635,35.77173544],[139.63020889,35.77233711],[139.6334883,35.77048877],[139.63347581,35.76986211],[139.63472969,35.76987461],[139.63483025,35.76879739],[139.64084503,35.76915959],[139.64296423,35.77092597],[139.64791425,35.76861597],[139.65582134,35.76902286],[139.66821839,35.76756675],[139.67128497,35.76102984],[139.67369662,35.75840511],[139.67334545,35.75451208],[139.67502486,35.75188736],[139.67328394,35.74786433],[139.67325283,35.74779184]]]}},{"type":"Feature","properties":{"code":"13120","nameJa":"練馬区","source":"MLIT N03 2024"},"geometry":{"type":"Polygon","coordinates":[[[139.56568837,35.72263889],[139.56563975,35.72165695],[139.57512558,35.71899195],[139.58057056,35.71478975],[139.58665136,35.71191225],[139.58681497,35.71326475],[139.58491917,35.71718364],[139.58681224,35.71975864],[139.59048891,35.72009364],[139.59335864,35.71806975],[139.59565506,35.72217169],[139.59979756,35.72391447],[139.60194814,35.72600808],[139.61539458,35.73028528],[139.62454542,35.73014556],[139.6276938,35.73523305],[139.63354328,35.73528361],[139.63507353,35.73230444],[139.63643047,35.73227833],[139.63809878,35.72815361],[139.639241,35.72785723],[139.63984183,35.72637333],[139.64357377,35.72530833],[139.64739713,35.72548944],[139.6474355,35.726745],[139.65047384,35.72688584],[139.65962167,35.72583],[139.65962667,35.72663553],[139.66258864,35.72724497],[139.66498703,35.7312572],[139.66817511,35.73139495],[139.66835567,35.73207328],[139.67039319,35.73233105],[139.67145542,35.73354051],[139.67467961,35.73305856],[139.67796905,35.73067856],[139.67924742,35.733368],[139.67909523,35.73534408],[139.68064997,35.73778241],[139.68130664,35.73780297],[139.67909667,35.74062713],[139.68084061,35.74381739],[139.67587922,35.74539461],[139.67213611,35.744526],[139.67502486,35.75188736],[139.67334545,35.75451208],[139.67353355,35.7589315],[139.67128497,35.76102984],[139.66821839,35.76756675],[139.65582134,35.76902286],[139.64791425,35.76861597],[139.64296423,35.77092597],[139.64084503,35.76915959],[139.63483025,35.76879739],[139.63472969,35.76987461],[139.63347581,35.76986211],[139.6334883,35.77048877],[139.63020889,35.77233711],[139.62935635,35.77173544],[139.62939642,35.77688097],[139.62518947,35.77793403],[139.6254528,35.77907403],[139.62471392,35.77982569],[139.62420942,35.77433072],[139.62560163,35.77301544],[139.62408328,35.77125323],[139.62299211,35.76687186],[139.61772905,35.76664797],[139.61681767,35.76843659],[139.61723297,35.77034822],[139.61542436,35.7708735],[139.61248322,35.77042517],[139.61171017,35.76937631],[139.61127239,35.77106656],[139.60874903,35.76883713],[139.60714458,35.76937603],[139.60635684,35.77094964],[139.6042893,35.76997075],[139.60286014,35.77096159],[139.59820706,35.7691402],[139.5976818,35.76992687],[139.59835292,35.77017436],[139.59739014,35.77097603],[139.59844014,35.77214159],[139.60267711,35.77436156],[139.60397516,35.77421572],[139.6043838,35.77501739],[139.59693849,35.77641211],[139.59720075,35.778366],[139.59414353,35.77870351],[139.59341406,35.77718823],[139.588761,35.7785285],[139.58668348,35.77528377],[139.58398486,35.77483184],[139.58377428,35.7728538],[139.58186345,35.77244575],[139.58224258,35.77120713],[139.58100258,35.77111992],[139.58065287,35.77178992],[139.58068202,35.77109075],[139.57816508,35.77085131],[139.57807064,35.76947325],[139.57688949,35.76807436],[139.57433672,35.76819103],[139.5745909,35.76622797],[139.57238837,35.76644603],[139.57243197,35.76581992],[139.57004003,35.76558659],[139.57107558,35.76334269],[139.56823805,35.76350825],[139.56836917,35.76282325],[139.56679389,35.76282325],[139.56677917,35.76196356],[139.56561222,35.76187605],[139.56473722,35.76282325],[139.56358472,35.76283769],[139.56278584,35.76159523],[139.56377889,35.76139661],[139.56413635,35.75965717],[139.56610969,35.75742439],[139.5658347,35.75682051],[139.56777022,35.7550655],[139.56769689,35.75322384],[139.5691955,35.75118661],[139.5692763,35.74998995],[139.56779547,35.75006051],[139.56883075,35.74758856],[139.56676547,35.74743133],[139.56816406,35.74275941],[139.56825209,35.73808025],[139.56733012,35.7363608],[139.56942372,35.73415608],[139.56608311,35.72732472],[139.56556114,35.72303861],[139.56568837,35.72263889]]]}},{"type":"Feature","properties":{"code":"13121","nameJa":"足立区","source":"MLIT N03 2024"},"geometry":{"type":"Polygon","coordinates":[[[139.81650497,35.74999984],[139.81453878,35.75233733],[139.81488711,35.75346289],[139.81332073,35.75481733],[139.8135402,35.75966622],[139.81716328,35.76073261],[139.81725494,35.76021095],[139.81973717,35.760449],[139.8202527,35.75597872],[139.82259742,35.75557595],[139.82354102,35.755869],[139.82436997,35.76178623],[139.82697331,35.76208539],[139.82545134,35.75932677],[139.82577217,35.75802705],[139.82754939,35.75735011],[139.82986661,35.75766122],[139.8309383,35.75882344],[139.83090581,35.76227175],[139.83173,35.76370841],[139.83747778,35.76318759],[139.83782114,35.76597314],[139.84192839,35.76651759],[139.84545869,35.76941453],[139.85129925,35.76988228],[139.85217978,35.76574923],[139.85641477,35.76443589],[139.85830175,35.76619284],[139.85880036,35.7679095],[139.85802012,35.77041423],[139.84853128,35.78114951],[139.84526575,35.78770672],[139.84421966,35.793587],[139.84674776,35.79650641],[139.84434333,35.79906308],[139.84232472,35.80012364],[139.83721942,35.80063839],[139.8327655,35.79567951],[139.82641822,35.79338147],[139.822476,35.79565008],[139.8204863,35.79753925],[139.81964519,35.79958731],[139.82075192,35.80553533],[139.82292112,35.80940672],[139.82464503,35.81064589],[139.82492698,35.81190451],[139.823392,35.814152],[139.82105562,35.815077],[139.82010975,35.81280367],[139.82109808,35.81143839],[139.81965364,35.81177977],[139.81860778,35.811062],[139.81860361,35.81176672],[139.81792973,35.81042478],[139.81469608,35.80870923],[139.80230384,35.80855313],[139.79884103,35.80619397],[139.79400131,35.80519841],[139.78723047,35.80687844],[139.78113711,35.80722984],[139.77885019,35.80860456],[139.77175523,35.81687484],[139.77029772,35.81748567],[139.76621883,35.81747484],[139.76514659,35.81643511],[139.7657838,35.81574484],[139.76127433,35.81288817],[139.75758795,35.81197261],[139.75561073,35.81271041],[139.75520124,35.81073153],[139.75190847,35.81093764],[139.75077319,35.81017069],[139.75065567,35.80666875],[139.755099,35.80337292],[139.76060119,35.79788264],[139.75996978,35.79433764],[139.75559613,35.79002903],[139.75626222,35.78863931],[139.75500083,35.78689569],[139.75003331,35.78593653],[139.7467683,35.78684987],[139.74581966,35.78328292],[139.73804908,35.78022069],[139.73818769,35.77825431],[139.73570486,35.77220764],[139.73672708,35.77021931],[139.74640623,35.76701208],[139.7543182,35.76816792],[139.75793849,35.7701782],[139.75927934,35.76930541],[139.76014764,35.76754597],[139.75984486,35.76628431],[139.75816511,35.7645932],[139.74888783,35.75981072],[139.74827367,35.75861822],[139.74906394,35.75703905],[139.75296562,35.75569072],[139.76441339,35.75399489],[139.78285453,35.75414014],[139.78879591,35.75250513],[139.79122425,35.74997959],[139.79090759,35.74848931],[139.78844228,35.74629736],[139.79047531,35.74227541],[139.7948028,35.73982541],[139.80143586,35.73859986],[139.81059981,35.74112403],[139.81303564,35.74073541],[139.81449703,35.73880486],[139.81725261,35.74209289],[139.82036289,35.74342872],[139.81666667,35.74978875],[139.81650497,35.74999984]]]}},{"type":"Feature","properties":{"code":"13122","nameJa":"葛飾区","source":"MLIT N03 2024"},"geometry":{"type":"Polygon","coordinates":[[[139.81650486,35.75],[139.82481231,35.73648372],[139.83464367,35.72633011],[139.85135558,35.71085314],[139.85626811,35.71445786],[139.8596237,35.71366203],[139.86055814,35.71433897],[139.86223981,35.71283259],[139.86484842,35.71320478],[139.86739897,35.71211923],[139.86856872,35.714582],[139.866269,35.71852978],[139.86874263,35.72380089],[139.87055348,35.72470839],[139.87013905,35.72901867],[139.87218297,35.73004451],[139.87216964,35.73444339],[139.87394523,35.73601672],[139.87293411,35.73737311],[139.87466134,35.73674867],[139.87654244,35.73703589],[139.87757859,35.74091505],[139.88050803,35.74028311],[139.87979387,35.74152951],[139.88068914,35.74164423],[139.88214361,35.74349522],[139.88185278,35.74438247],[139.88501633,35.74560059],[139.88489756,35.74653584],[139.88282864,35.74748475],[139.88299031,35.74833587],[139.88044419,35.74847892],[139.88075309,35.74973086],[139.88998228,35.75076503],[139.88320842,35.75862336],[139.88247455,35.7625842],[139.87946153,35.76752447],[139.87984791,35.76972613],[139.88175156,35.77285836],[139.89341745,35.77831556],[139.89446358,35.77991778],[139.89433136,35.78164361],[139.89377805,35.78274639],[139.88774778,35.78402251],[139.87724939,35.78116611],[139.87454244,35.78177587],[139.8717583,35.78475059],[139.87119387,35.78663447],[139.87325834,35.790395],[139.87657669,35.79319584],[139.87569034,35.79553111],[139.87339117,35.79717028],[139.86872309,35.79700639],[139.86384861,35.79482778],[139.85953778,35.79522836],[139.8573683,35.79176836],[139.85591747,35.7908228],[139.85356275,35.79155808],[139.84674776,35.79650641],[139.84421966,35.793587],[139.84526575,35.78770672],[139.84853128,35.78114951],[139.85802012,35.77041423],[139.85880036,35.7679095],[139.85830175,35.76619284],[139.85641477,35.76443589],[139.85217978,35.76574923],[139.85129925,35.76988228],[139.84545869,35.76941453],[139.84192839,35.76651759],[139.83782114,35.76597314],[139.83747778,35.76318759],[139.83173,35.76370841],[139.83090581,35.76227175],[139.8309383,35.75882344],[139.82986661,35.75766122],[139.82754939,35.75735011],[139.82577217,35.75802705],[139.82545134,35.75932677],[139.82697331,35.76208539],[139.82436997,35.76178623],[139.82354102,35.755869],[139.82259742,35.75557595],[139.8202527,35.75597872],[139.81973717,35.760449],[139.81725494,35.76021095],[139.81716328,35.76073261],[139.8135402,35.75966622],[139.81332073,35.75481733],[139.81488711,35.75346289],[139.81453878,35.75233733],[139.81608708,35.75054539],[139.81650486,35.75]]]}},{"type":"Feature","properties":{"code":"13123","nameJa":"江戸川区","source":"MLIT N03 2024"},"geometry":{"type":"Polygon","coordinates":[[[139.87146061,35.63864172],[139.88314606,35.64475669],[139.88690392,35.65373364],[139.88736769,35.66792086],[139.88553078,35.67276947],[139.88694,35.67926003],[139.89204531,35.68164364],[139.90378864,35.68311584],[139.90715392,35.68438361],[139.91385253,35.69092972],[139.91890837,35.69827417],[139.91621092,35.70800139],[139.90812345,35.71386225],[139.90477958,35.71888475],[139.89798211,35.7242892],[139.8972627,35.72927808],[139.90088581,35.73745753],[139.90068278,35.74135114],[139.89855891,35.74541003],[139.89287808,35.74808197],[139.88998228,35.75076503],[139.88075309,35.74973086],[139.88044419,35.74847892],[139.88299031,35.74833587],[139.88282864,35.74748475],[139.88489756,35.74653584],[139.88501633,35.74560059],[139.88185278,35.74438247],[139.88214361,35.74349522],[139.88068914,35.74164423],[139.87979387,35.74152951],[139.88050803,35.74028311],[139.87757859,35.74091505],[139.87654244,35.73703589],[139.87466134,35.73674867],[139.87293411,35.73737311],[139.87394523,35.73601672],[139.87216964,35.73444339],[139.87218297,35.73004451],[139.87013905,35.72901867],[139.87055348,35.72470839],[139.86874263,35.72380089],[139.866269,35.71852978],[139.86856872,35.714582],[139.86739897,35.71211923],[139.86484842,35.71320478],[139.86223981,35.71283259],[139.86055814,35.71433897],[139.8596237,35.71366203],[139.85626811,35.71445786],[139.85135558,35.71085314],[139.84215477,35.71931092],[139.83904642,35.71711428],[139.83549642,35.71786956],[139.83315944,35.71575789],[139.83416778,35.71343761],[139.83960501,35.71035011],[139.83489911,35.70583344],[139.83438828,35.70473233],[139.83504575,35.70330678],[139.84452772,35.69907814],[139.8477063,35.69496703],[139.84758822,35.68809397],[139.84660153,35.68307147],[139.84551484,35.68128841],[139.84822678,35.67913453],[139.846887,35.67384953],[139.84554297,35.65671677],[139.8503814,35.65652608],[139.84945795,35.64271705],[139.8599302,35.638842],[139.87073313,35.63890259],[139.87146061,35.63864172]]]}},{"type":"Feature","properties":{"code":"13123","nameJa":"江戸川区","source":"MLIT N03 2024"},"geometry":{"type":"Polygon","coordinates":[[[139.84973562,35.63583564],[139.84991392,35.63846685],[139.85051153,35.63857745],[139.8574666,35.6375266],[139.85869158,35.63648318],[139.85749348,35.63500931],[139.85906261,35.63711261],[139.85821894,35.63807755],[139.85130555,35.64039423],[139.84980075,35.63929944],[139.84973117,35.6358022],[139.84973562,35.63583564]]]}},{"type":"Feature","properties":{"code":"13123","nameJa":"江戸川区","source":"MLIT N03 2024"},"geometry":{"type":"Polygon","coordinates":[[[139.8581555,35.63459084],[139.86109515,35.63692578],[139.86317131,35.63569922],[139.86446796,35.63671853],[139.86736089,35.63467757],[139.86586102,35.63268111],[139.86755575,35.63478511],[139.865812,35.63645639],[139.86260674,35.63735717],[139.86025022,35.63670223],[139.85833333,35.63479003],[139.8581555,35.63459084]]]}},{"type":"Feature","properties":{"code":"13123","nameJa":"江戸川区","source":"MLIT N03 2024"},"geometry":{"type":"Polygon","coordinates":[[[139.86254752,35.63556083],[139.86267508,35.63500672],[139.86366261,35.63513489],[139.86255934,35.63558543],[139.86254752,35.63556083]]]}},{"type":"Feature","properties":{"code":"13222","nameJa":"東久留米市","source":"MLIT N03 2024"},"geometry":{"type":"Polygon","coordinates":[[[139.50452205,35.73333333],[139.5044408,35.73220084],[139.50560552,35.73205584],[139.50675253,35.73999556],[139.50566503,35.74029528],[139.50673141,35.74202361],[139.50857031,35.74126917],[139.50776698,35.74001472],[139.50817333,35.73839195],[139.51263614,35.73797584],[139.51284752,35.74143417],[139.51336228,35.74142525],[139.51300837,35.73877805],[139.51424419,35.73875723],[139.51433728,35.74141886],[139.51528089,35.74124775],[139.51510669,35.73911695],[139.52110783,35.73895192],[139.52016808,35.73344305],[139.53131759,35.74026608],[139.52717175,35.74365303],[139.52842012,35.74472359],[139.53319844,35.74464164],[139.54458436,35.75476078],[139.54477353,35.75679495],[139.54697966,35.76030272],[139.54668803,35.76269244],[139.54763608,35.76617213],[139.54694778,35.76955103],[139.54764808,35.77108103],[139.54766253,35.77422825],[139.53030189,35.76834911],[139.52137827,35.76756995],[139.50858791,35.76204689],[139.49476314,35.75828636],[139.49523231,35.7565158],[139.49394786,35.75594664],[139.49387866,35.75382359],[139.49225589,35.75287886],[139.49350005,35.75200887],[139.49301781,35.75153722],[139.49069837,35.75205695],[139.48741528,35.74905139],[139.48641694,35.74888417],[139.48685501,35.74646472],[139.48452776,35.74437556],[139.48544192,35.74372361],[139.48753111,35.7450575],[139.48790386,35.74414111],[139.48955584,35.74491972],[139.49113442,35.74147028],[139.49816947,35.74434139],[139.49810503,35.74585833],[139.50379586,35.74284556],[139.50328361,35.74141361],[139.50472253,35.74102584],[139.50395861,35.73674639],[139.50477861,35.73665417],[139.50453497,35.73345889],[139.50452205,35.73333333]]]}}]}
